{"type":"FeatureCollection","features":[{"type":"Feature","properties":{"name":"Los Padres National Forest","c":"protected"},"geometry":{"type":"MultiPolygon","coordinates":[[[[-119.33874,34.43872],[-119.34,34.43801],[-119.34,34.44137],[-119.33874,34.44139],[-119.33874,34.43872]]],[[[-119.33802,34.49005],[-119.32871,34.49005],[-119.3243,34.49],[-119.32466,34.48614],[-119.32001,34.48609],[-119.3199,34.48995],[-119.31548,34.48996],[-119.31555,34.48621],[-119.31109,34.48632],[-119.31118,34.48248],[-119.30241,34.48241],[-119.30253,34.47113],[-119.29381,34.47106],[-119.29383,34.46384],[-119.29414,34.46367],[-119.30258,34.46357],[-119.30258,34.45892],[-119.31138,34.45401],[-119.31139,34.45628],[-119.31581,34.45621],[-119.31583,34.45979],[-119.32025,34.45972],[-119.32026,34.46329],[-119.33873,34.46319],[-119.33796,34.47851],[-119.34,34.47851],[-119.34,34.49391],[-119.33797,34.49391],[-119.33802,34.49005]]],[[[-119.33874,34.45775],[-119.34,34.45773],[-119.34,34.46319],[-119.33873,34.46319],[-119.33874,34.45775]]],[[[-119.30219,34.49703],[-119.30671,34.49713],[-119.30663,34.49352],[-119.31978,34.4938],[-119.32394,34.49386],[-119.32419,34.49746],[-119.33798,34.49754],[-119.33799,34.50118],[-119.34,34.50118],[-119.34,34.505],[-119.30221,34.505],[-119.30213,34.50064],[-119.30219,34.49703]]],[[[-119.16267,34.4626],[-119.17124,34.46263],[-119.17125,34.47001],[-119.18411,34.47005],[-119.18416,34.4774],[-119.18413,34.48473],[-119.18832,34.48471],[-119.18841,34.48106],[-119.19274,34.48106],[-119.1927,34.48471],[-119.19292,34.49941],[-119.20154,34.49941],[-119.20148,34.49202],[-119.19709,34.49202],[-119.19707,34.47741],[-119.21466,34.47739],[-119.21466,34.48103],[-119.21904,34.48105],[-119.21903,34.47741],[-119.2278,34.47743],[-119.2278,34.47381],[-119.23217,34.47385],[-119.23217,34.47026],[-119.25048,34.47089],[-119.25037,34.47458],[-119.25474,34.47461],[-119.25504,34.47096],[-119.25504,34.46909],[-119.2572,34.4691],[-119.25719,34.46723],[-119.25925,34.46721],[-119.25939,34.47097],[-119.25945,34.47841],[-119.27669,34.47845],[-119.27661,34.47472],[-119.28509,34.47473],[-119.28526,34.48209],[-119.29374,34.48225],[-119.29366,34.48596],[-119.30237,34.4862],[-119.30225,34.49342],[-119.29787,34.49342],[-119.29791,34.50057],[-119.29799,34.50417],[-119.28964,34.50408],[-119.28965,34.505],[-119.16,34.505],[-119.16,34.45896],[-119.16246,34.459],[-119.16267,34.4626]]]]}},{"type":"Feature","properties":{"name":"Lake Casitas Recreation Area","c":"park"},"geometry":{"type":"Polygon","coordinates":[[[-119.33741,34.41844],[-119.33683,34.41827],[-119.33697,34.41757],[-119.33723,34.417],[-119.33728,34.41672],[-119.33725,34.41651],[-119.33701,34.41589],[-119.3368,34.415],[-119.34,34.415],[-119.34,34.41935],[-119.33741,34.41844]]]}},{"type":"Feature","properties":{"name":"","c":"recreation"},"geometry":{"type":"Polygon","coordinates":[[[-119.30846,34.42274],[-119.30848,34.42284],[-119.30845,34.42296],[-119.30838,34.42306],[-119.30827,34.42311],[-119.30814,34.42313],[-119.30798,34.42309],[-119.30789,34.423],[-119.30798,34.4227],[-119.30804,34.42267],[-119.30846,34.42274]]]}},{"type":"Feature","properties":{"name":"","c":"recreation"},"geometry":{"type":"Polygon","coordinates":[[[-119.30783,34.42374],[-119.30781,34.42393],[-119.30766,34.42391],[-119.30769,34.42373],[-119.30783,34.42374]]]}},{"type":"Feature","properties":{"name":"","c":"recreation"},"geometry":{"type":"Polygon","coordinates":[[[-119.3087,34.43028],[-119.30882,34.43031],[-119.30875,34.43052],[-119.30864,34.43049],[-119.3087,34.43028]]]}},{"type":"Feature","properties":{"name":"","c":"recreation"},"geometry":{"type":"Polygon","coordinates":[[[-119.30996,34.42877],[-119.31008,34.42879],[-119.31001,34.429],[-119.30989,34.42898],[-119.30996,34.42877]]]}},{"type":"Feature","properties":{"name":"","c":"recreation"},"geometry":{"type":"Polygon","coordinates":[[[-119.3132,34.43106],[-119.31335,34.43082],[-119.3134,34.4308],[-119.31351,34.43085],[-119.31353,34.43089],[-119.31338,34.43113],[-119.31333,34.43114],[-119.31321,34.43109],[-119.3132,34.43106]]]}},{"type":"Feature","properties":{"name":"","c":"recreation"},"geometry":{"type":"Polygon","coordinates":[[[-119.31344,34.43168],[-119.31337,34.43165],[-119.31334,34.43157],[-119.31337,34.43151],[-119.31374,34.43143],[-119.31384,34.43145],[-119.31388,34.4315],[-119.31387,34.43156],[-119.31382,34.43161],[-119.31344,34.43168]]]}},{"type":"Feature","properties":{"name":"","c":"recreation"},"geometry":{"type":"Polygon","coordinates":[[[-119.31478,34.43135],[-119.3143,34.43139],[-119.31421,34.43132],[-119.3142,34.43119],[-119.31426,34.43114],[-119.31477,34.4311],[-119.31485,34.43115],[-119.31486,34.43127],[-119.31478,34.43135]]]}},{"type":"Feature","properties":{"name":"","c":"recreation"},"geometry":{"type":"Polygon","coordinates":[[[-119.32162,34.43758],[-119.32158,34.43753],[-119.32156,34.43722],[-119.32163,34.43718],[-119.32255,34.43713],[-119.32257,34.43752],[-119.32162,34.43758]]]}},{"type":"Feature","properties":{"name":"Ventura River Preserve","c":"protected"},"geometry":{"type":"Polygon","coordinates":[[[-119.3052,34.43173],[-119.3034,34.43346],[-119.30331,34.4346],[-119.3035,34.43509],[-119.30174,34.43765],[-119.30175,34.43826],[-119.30161,34.43885],[-119.30141,34.4394],[-119.30091,34.4402],[-119.3007,34.44074],[-119.30033,34.44127],[-119.30056,34.44161],[-119.3005,34.44186],[-119.30078,34.44211],[-119.30242,34.44146],[-119.30295,34.44167],[-119.30342,34.44194],[-119.3039,34.44193],[-119.30666,34.44115],[-119.30726,34.44113],[-119.30771,34.44144],[-119.30842,34.44151],[-119.30931,34.44099],[-119.3117,34.44099],[-119.31204,34.44534],[-119.32252,34.44375],[-119.3224,34.44432],[-119.32256,34.44482],[-119.3218,34.44624],[-119.32085,34.44641],[-119.32045,34.44689],[-119.31971,34.44725],[-119.31955,34.44773],[-119.31954,34.44791],[-119.31975,34.44816],[-119.31975,34.44887],[-119.3201,34.44912],[-119.32023,34.45614],[-119.31139,34.45628],[-119.31138,34.45401],[-119.30258,34.45892],[-119.30258,34.46357],[-119.29611,34.46364],[-119.29564,34.46303],[-119.2951,34.46302],[-119.29445,34.46205],[-119.29425,34.46049],[-119.2931,34.46028],[-119.28942,34.45994],[-119.29144,34.4445],[-119.29316,34.44329],[-119.29393,34.44292],[-119.29455,34.44273],[-119.29585,34.44301],[-119.29607,34.44291],[-119.29657,34.44135],[-119.2966,34.4411],[-119.29669,34.4409],[-119.2971,34.44059],[-119.29744,34.43979],[-119.29734,34.43978],[-119.29749,34.4385],[-119.29751,34.43789],[-119.29742,34.43775],[-119.29733,34.43728],[-119.29704,34.43694],[-119.29687,34.43657],[-119.29644,34.43516],[-119.2964,34.43481],[-119.29658,34.43465],[-119.29671,34.43335],[-119.29637,34.43242],[-119.29837,34.42792],[-119.30379,34.42621],[-119.30575,34.42909],[-119.3051,34.4306],[-119.3052,34.43173]]]}},{"type":"Feature","properties":{"name":"","c":"recreation"},"geometry":{"type":"Polygon","coordinates":[[[-119.30613,34.43928],[-119.30617,34.43914],[-119.30639,34.43916],[-119.3064,34.43967],[-119.30614,34.43956],[-119.30613,34.43928]]]}},{"type":"Feature","properties":{"name":"","c":"recreation"},"geometry":{"type":"Polygon","coordinates":[[[-119.30389,34.43562],[-119.30415,34.43565],[-119.30413,34.43575],[-119.30387,34.43572],[-119.30389,34.43562]]]}},{"type":"Feature","properties":{"name":"","c":"recreation"},"geometry":{"type":"Polygon","coordinates":[[[-119.29627,34.44128],[-119.29655,34.4413],[-119.29637,34.44183],[-119.29608,34.4417],[-119.29627,34.44128]]]}},{"type":"Feature","properties":{"name":"","c":"recreation"},"geometry":{"type":"Polygon","coordinates":[[[-119.29623,34.44201],[-119.29619,34.44207],[-119.2961,34.44207],[-119.29606,34.44204],[-119.29605,34.44198],[-119.29609,34.44194],[-119.29614,34.44193],[-119.29622,34.44197],[-119.29623,34.44201]]]}},{"type":"Feature","properties":{"name":"","c":"recreation"},"geometry":{"type":"Polygon","coordinates":[[[-119.29287,34.44254],[-119.29285,34.44273],[-119.29274,34.44272],[-119.29276,34.44253],[-119.29287,34.44254]]]}},{"type":"Feature","properties":{"name":"","c":"recreation"},"geometry":{"type":"Polygon","coordinates":[[[-119.2874,34.44661],[-119.28787,34.44671],[-119.28775,34.44713],[-119.28727,34.44701],[-119.2874,34.44661]]]}},{"type":"Feature","properties":{"name":"","c":"recreation"},"geometry":{"type":"Polygon","coordinates":[[[-119.28791,34.44833],[-119.28785,34.44832],[-119.28781,34.44824],[-119.28785,34.4482],[-119.28793,34.44819],[-119.28798,34.44824],[-119.28797,34.44829],[-119.28791,34.44833]]]}},{"type":"Feature","properties":{"name":"","c":"recreation"},"geometry":{"type":"Polygon","coordinates":[[[-119.28816,34.44747],[-119.28811,34.44748],[-119.28803,34.44742],[-119.28804,34.44737],[-119.28811,34.44733],[-119.28819,34.44736],[-119.28821,34.44741],[-119.28816,34.44747]]]}},{"type":"Feature","properties":{"name":"","c":"recreation"},"geometry":{"type":"Polygon","coordinates":[[[-119.28721,34.44707],[-119.2878,34.44721],[-119.28785,34.44725],[-119.28762,34.44801],[-119.28696,34.44787],[-119.28721,34.44707]]]}},{"type":"Feature","properties":{"name":"","c":"recreation"},"geometry":{"type":"Polygon","coordinates":[[[-119.28685,34.44821],[-119.28717,34.44827],[-119.28699,34.44888],[-119.28666,34.44881],[-119.28685,34.44821]]]}},{"type":"Feature","properties":{"name":"","c":"recreation"},"geometry":{"type":"Polygon","coordinates":[[[-119.28583,34.44851],[-119.28575,34.4485],[-119.28569,34.44846],[-119.28568,34.44839],[-119.28576,34.44832],[-119.28584,34.44832],[-119.28592,34.44839],[-119.2859,34.44847],[-119.28583,34.44851]]]}},{"type":"Feature","properties":{"name":"","c":"recreation"},"geometry":{"type":"Polygon","coordinates":[[[-119.28491,34.44805],[-119.28566,34.4482],[-119.28559,34.44848],[-119.28483,34.44833],[-119.28491,34.44805]]]}},{"type":"Feature","properties":{"name":"","c":"recreation"},"geometry":{"type":"Polygon","coordinates":[[[-119.28693,34.44685],[-119.28692,34.4468],[-119.28696,34.44668],[-119.28705,34.44665],[-119.28713,34.44669],[-119.28715,34.44676],[-119.28712,34.44685],[-119.28703,34.44688],[-119.28693,34.44685]]]}},{"type":"Feature","properties":{"name":"","c":"recreation"},"geometry":{"type":"Polygon","coordinates":[[[-119.28705,34.44633],[-119.28708,34.44628],[-119.2874,34.44634],[-119.28741,34.44637],[-119.2874,34.44644],[-119.28736,34.44649],[-119.28705,34.44644],[-119.28705,34.44633]]]}},{"type":"Feature","properties":{"name":"","c":"recreation"},"geometry":{"type":"Polygon","coordinates":[[[-119.28651,34.4462],[-119.28655,34.44613],[-119.28666,34.44616],[-119.28664,34.44625],[-119.28656,34.44624],[-119.28651,34.4462]]]}},{"type":"Feature","properties":{"name":"","c":"recreation"},"geometry":{"type":"Polygon","coordinates":[[[-119.289,34.4431],[-119.28912,34.44315],[-119.28899,34.44326],[-119.2889,34.44323],[-119.289,34.4431]]]}},{"type":"Feature","properties":{"name":"","c":"recreation"},"geometry":{"type":"Polygon","coordinates":[[[-119.28852,34.44323],[-119.28851,34.4432],[-119.28872,34.44298],[-119.28887,34.44305],[-119.2887,34.4433],[-119.28852,34.44323]]]}},{"type":"Feature","properties":{"name":"","c":"religious"},"geometry":{"type":"Polygon","coordinates":[[[-119.28561,34.43668],[-119.2856,34.43702],[-119.28481,34.437],[-119.28482,34.43666],[-119.28561,34.43668]]]}},{"type":"Feature","properties":{"name":"","c":"park"},"geometry":{"type":"Polygon","coordinates":[[[-119.28924,34.42614],[-119.28933,34.42607],[-119.28953,34.42608],[-119.2895,34.42633],[-119.28922,34.42631],[-119.28924,34.42614]]]}},{"type":"Feature","properties":{"name":"","c":"park"},"geometry":{"type":"Polygon","coordinates":[[[-119.29198,34.42599],[-119.29195,34.4262],[-119.29163,34.42618],[-119.29165,34.42596],[-119.29198,34.42599]]]}},{"type":"Feature","properties":{"name":"","c":"recreation"},"geometry":{"type":"Polygon","coordinates":[[[-119.29557,34.43197],[-119.29553,34.43227],[-119.29535,34.43226],[-119.29537,34.43196],[-119.29555,34.43195],[-119.29557,34.43197]]]}},{"type":"Feature","properties":{"name":"","c":"recreation"},"geometry":{"type":"Polygon","coordinates":[[[-119.2963,34.43011],[-119.29653,34.43012],[-119.29652,34.43029],[-119.29628,34.43028],[-119.2963,34.43011]]]}},{"type":"Feature","properties":{"name":"","c":"recreation"},"geometry":{"type":"Polygon","coordinates":[[[-119.29073,34.41788],[-119.29078,34.41787],[-119.29093,34.41799],[-119.29092,34.41804],[-119.2908,34.41814],[-119.2906,34.41802],[-119.29073,34.41788]]]}},{"type":"Feature","properties":{"name":"","c":"recreation"},"geometry":{"type":"Polygon","coordinates":[[[-119.29079,34.41845],[-119.29087,34.41852],[-119.29069,34.41867],[-119.29062,34.4186],[-119.29079,34.41845]]]}},{"type":"Feature","properties":{"name":"","c":"recreation"},"geometry":{"type":"Polygon","coordinates":[[[-119.28505,34.42279],[-119.28515,34.42285],[-119.28498,34.42301],[-119.28489,34.42295],[-119.28505,34.42279]]]}},{"type":"Feature","properties":{"name":"","c":"recreation"},"geometry":{"type":"Polygon","coordinates":[[[-119.2849,34.42268],[-119.28499,34.42274],[-119.28483,34.42291],[-119.28473,34.42284],[-119.2849,34.42268]]]}},{"type":"Feature","properties":{"name":"","c":"recreation"},"geometry":{"type":"Polygon","coordinates":[[[-119.28496,34.42308],[-119.28489,34.42314],[-119.28481,34.42309],[-119.28487,34.42303],[-119.28496,34.42308]]]}},{"type":"Feature","properties":{"name":"Thomas Aquinas Cemetery","c":"cemetery"},"geometry":{"type":"Polygon","coordinates":[[[-119.26869,34.43001],[-119.26926,34.4299],[-119.26965,34.43062],[-119.26895,34.43095],[-119.26836,34.43011],[-119.26869,34.43001]]]}},{"type":"Feature","properties":{"name":"","c":"recreation"},"geometry":{"type":"Polygon","coordinates":[[[-119.27843,34.43375],[-119.27867,34.43375],[-119.27867,34.43387],[-119.27842,34.43386],[-119.27843,34.43375]]]}},{"type":"Feature","properties":{"name":"","c":"recreation"},"geometry":{"type":"Polygon","coordinates":[[[-119.27843,34.43361],[-119.27868,34.43362],[-119.27867,34.43373],[-119.27843,34.43372],[-119.27843,34.43361]]]}},{"type":"Feature","properties":{"name":"","c":"recreation"},"geometry":{"type":"Polygon","coordinates":[[[-119.27844,34.43347],[-119.27868,34.43348],[-119.27868,34.43359],[-119.27843,34.43359],[-119.27844,34.43347]]]}},{"type":"Feature","properties":{"name":"Mira Monte Elementary School","c":"education"},"geometry":{"type":"Polygon","coordinates":[[[-119.27716,34.43271],[-119.27999,34.43269],[-119.27993,34.43413],[-119.27708,34.43405],[-119.27716,34.43271]]]}},{"type":"Feature","properties":{"name":"","c":"recreation"},"geometry":{"type":"Polygon","coordinates":[[[-119.27871,34.43308],[-119.27869,34.43311],[-119.27866,34.43309],[-119.27868,34.43306],[-119.27871,34.43308]]]}},{"type":"Feature","properties":{"name":"","c":"recreation"},"geometry":{"type":"Polygon","coordinates":[[[-119.27865,34.43308],[-119.27863,34.4331],[-119.2786,34.43309],[-119.27862,34.43306],[-119.27865,34.43308]]]}},{"type":"Feature","properties":{"name":"","c":"recreation"},"geometry":{"type":"Polygon","coordinates":[[[-119.27781,34.43373],[-119.2779,34.43363],[-119.27805,34.43357],[-119.27828,34.43355],[-119.27826,34.43387],[-119.2782,34.43395],[-119.27778,34.43396],[-119.27781,34.43373]]]}},{"type":"Feature","properties":{"name":"","c":"recreation"},"geometry":{"type":"Polygon","coordinates":[[[-119.27775,34.43316],[-119.27765,34.43323],[-119.27755,34.43327],[-119.27732,34.43325],[-119.27733,34.43298],[-119.27735,34.43293],[-119.27742,34.43288],[-119.27782,34.43288],[-119.27782,34.43302],[-119.27775,34.43316]]]}},{"type":"Feature","properties":{"name":"Oak Grove School","c":"education"},"geometry":{"type":"Polygon","coordinates":[[[-119.27844,34.44229],[-119.27666,34.44186],[-119.27701,34.44054],[-119.27831,34.44],[-119.27876,34.43995],[-119.27884,34.43975],[-119.28033,34.43991],[-119.28042,34.43973],[-119.285,34.44156],[-119.28482,34.44182],[-119.2847,34.44191],[-119.28384,34.44221],[-119.28346,34.44229],[-119.2828,34.44227],[-119.28254,34.44233],[-119.28238,34.44243],[-119.28174,34.44309],[-119.28157,34.44323],[-119.28137,34.44332],[-119.28127,34.44333],[-119.27959,34.44316],[-119.27825,34.44287],[-119.27844,34.44229]]]}},{"type":"Feature","properties":{"name":"","c":"recreation"},"geometry":{"type":"Polygon","coordinates":[[[-119.28227,34.44641],[-119.28253,34.44647],[-119.28242,34.44679],[-119.28216,34.44673],[-119.28227,34.44641]]]}},{"type":"Feature","properties":{"name":"Meiners Oaks Elementary School","c":"education"},"geometry":{"type":"Polygon","coordinates":[[[-119.27452,34.44454],[-119.27482,34.44362],[-119.2777,34.44431],[-119.27739,34.44524],[-119.27452,34.44454]]]}},{"type":"Feature","properties":{"name":"","c":"recreation"},"geometry":{"type":"Polygon","coordinates":[[[-119.28026,34.44145],[-119.28022,34.44162],[-119.27991,34.44156],[-119.27996,34.4414],[-119.28026,34.44145]]]}},{"type":"Feature","properties":{"name":"","c":"recreation"},"geometry":{"type":"Polygon","coordinates":[[[-119.28078,34.4412],[-119.28067,34.44151],[-119.27974,34.44135],[-119.27984,34.44102],[-119.28078,34.4412]]]}},{"type":"Feature","properties":{"name":"","c":"recreation"},"geometry":{"type":"Polygon","coordinates":[[[-119.27733,34.44108],[-119.27727,34.44129],[-119.27715,34.44126],[-119.27721,34.44106],[-119.27733,34.44108]]]}},{"type":"Feature","properties":{"name":"","c":"recreation"},"geometry":{"type":"Polygon","coordinates":[[[-119.27691,34.44132],[-119.27813,34.44158],[-119.27798,34.44206],[-119.27676,34.44179],[-119.27691,34.44132]]]}},{"type":"Feature","properties":{"name":"","c":"recreation"},"geometry":{"type":"Polygon","coordinates":[[[-119.27705,34.44102],[-119.27717,34.44105],[-119.2771,34.44125],[-119.27699,34.44123],[-119.27705,34.44102]]]}},{"type":"Feature","properties":{"name":"","c":"recreation"},"geometry":{"type":"Polygon","coordinates":[[[-119.27507,34.44257],[-119.27436,34.44242],[-119.2745,34.44204],[-119.27563,34.4423],[-119.27555,34.44259],[-119.27507,34.44257]]]}},{"type":"Feature","properties":{"name":"Ojai Meadows Preserve","c":"protected"},"geometry":{"type":"Polygon","coordinates":[[[-119.27023,34.44529],[-119.26994,34.44487],[-119.26994,34.44482],[-119.26923,34.44401],[-119.27055,34.44051],[-119.27297,34.44109],[-119.27299,34.44103],[-119.2758,34.44164],[-119.27573,34.44185],[-119.27387,34.44138],[-119.27369,34.44192],[-119.27449,34.44211],[-119.27439,34.44243],[-119.27561,34.44267],[-119.27644,34.44287],[-119.27639,34.44298],[-119.27645,34.44301],[-119.27806,34.44332],[-119.2777,34.44431],[-119.27482,34.44362],[-119.27452,34.44454],[-119.27351,34.44431],[-119.27343,34.44425],[-119.27216,34.44396],[-119.27105,34.44706],[-119.27023,34.44529]]]}},{"type":"Feature","properties":{"name":"","c":"recreation"},"geometry":{"type":"Polygon","coordinates":[[[-119.27511,34.4438],[-119.27503,34.44387],[-119.27495,34.44387],[-119.27487,34.4438],[-119.27493,34.44368],[-119.27508,34.4437],[-119.27511,34.4438]]]}},{"type":"Feature","properties":{"name":"","c":"recreation"},"geometry":{"type":"Polygon","coordinates":[[[-119.27597,34.44409],[-119.27593,34.44421],[-119.27567,34.44414],[-119.27571,34.44403],[-119.27597,34.44409]]]}},{"type":"Feature","properties":{"name":"","c":"recreation"},"geometry":{"type":"Polygon","coordinates":[[[-119.27589,34.44431],[-119.27563,34.44425],[-119.27567,34.44414],[-119.27593,34.44421],[-119.27589,34.44431]]]}},{"type":"Feature","properties":{"name":"","c":"recreation"},"geometry":{"type":"Polygon","coordinates":[[[-119.27544,34.44416],[-119.27536,34.44441],[-119.27471,34.44427],[-119.27479,34.44402],[-119.27544,34.44416]]]}},{"type":"Feature","properties":{"name":"","c":"recreation"},"geometry":{"type":"Polygon","coordinates":[[[-119.27484,34.44434],[-119.27491,34.44438],[-119.27494,34.44445],[-119.27491,34.44452],[-119.27487,34.44455],[-119.27473,34.44455],[-119.27469,34.44452],[-119.27467,34.44449],[-119.27471,34.44436],[-119.27484,34.44434]]]}},{"type":"Feature","properties":{"name":"","c":"recreation"},"geometry":{"type":"Polygon","coordinates":[[[-119.27262,34.44838],[-119.27274,34.44843],[-119.27271,34.44852],[-119.27256,34.44848],[-119.27262,34.44838]]]}},{"type":"Feature","properties":{"name":"Meiners Oaks Park","c":"park"},"geometry":{"type":"Polygon","coordinates":[[[-119.27186,34.44908],[-119.27151,34.44826],[-119.27168,34.44742],[-119.2724,34.44761],[-119.27186,34.44908]]]}},{"type":"Feature","properties":{"name":"","c":"recreation"},"geometry":{"type":"Polygon","coordinates":[[[-119.26857,34.44587],[-119.26869,34.44589],[-119.26864,34.4461],[-119.26852,34.44608],[-119.26857,34.44587]]]}},{"type":"Feature","properties":{"name":"","c":"recreation"},"geometry":{"type":"Polygon","coordinates":[[[-119.26927,34.44367],[-119.26921,34.44372],[-119.26915,34.44371],[-119.26912,34.44366],[-119.2692,34.44348],[-119.26924,34.44349],[-119.26927,34.44367]]]}},{"type":"Feature","properties":{"name":"","c":"recreation"},"geometry":{"type":"Polygon","coordinates":[[[-119.26906,34.44329],[-119.26902,34.44324],[-119.26907,34.44323],[-119.26908,34.44331],[-119.26906,34.44329]]]}},{"type":"Feature","properties":{"name":"","c":"recreation"},"geometry":{"type":"Polygon","coordinates":[[[-119.26903,34.4421],[-119.26902,34.44213],[-119.26948,34.44224],[-119.26902,34.44214],[-119.26901,34.44217],[-119.26894,34.44215],[-119.26896,34.44209],[-119.26903,34.4421]]]}},{"type":"Feature","properties":{"name":"","c":"recreation"},"geometry":{"type":"Polygon","coordinates":[[[-119.2689,34.44096],[-119.26906,34.4407],[-119.26935,34.44053],[-119.26973,34.44046],[-119.26999,34.44051],[-119.2702,34.44063],[-119.26988,34.44145],[-119.26886,34.44117],[-119.2689,34.44096]]]}},{"type":"Feature","properties":{"name":"","c":"recreation"},"geometry":{"type":"Polygon","coordinates":[[[-119.26827,34.44154],[-119.26839,34.44152],[-119.26843,34.44174],[-119.26831,34.44175],[-119.26827,34.44154]]]}},{"type":"Feature","properties":{"name":"","c":"recreation"},"geometry":{"type":"Polygon","coordinates":[[[-119.26786,34.44157],[-119.26797,34.44155],[-119.26802,34.44181],[-119.2679,34.44182],[-119.26786,34.44157]]]}},{"type":"Feature","properties":{"name":"","c":"recreation"},"geometry":{"type":"Polygon","coordinates":[[[-119.26808,34.44156],[-119.2682,34.44155],[-119.26823,34.44176],[-119.26811,34.44177],[-119.26808,34.44156]]]}},{"type":"Feature","properties":{"name":"","c":"recreation"},"geometry":{"type":"Polygon","coordinates":[[[-119.26847,34.44151],[-119.26859,34.4415],[-119.26863,34.44171],[-119.26851,34.44173],[-119.26847,34.44151]]]}},{"type":"Feature","properties":{"name":"","c":"recreation"},"geometry":{"type":"Polygon","coordinates":[[[-119.26867,34.44149],[-119.26879,34.44148],[-119.26882,34.44169],[-119.2687,34.4417],[-119.26867,34.44149]]]}},{"type":"Feature","properties":{"name":"","c":"recreation"},"geometry":{"type":"Polygon","coordinates":[[[-119.26892,34.44216],[-119.26947,34.4423],[-119.26913,34.44324],[-119.26858,34.44311],[-119.26892,34.44216]]]}},{"type":"Feature","properties":{"name":"","c":"recreation"},"geometry":{"type":"Polygon","coordinates":[[[-119.26752,34.44161],[-119.26767,34.44159],[-119.26772,34.44184],[-119.26757,34.44186],[-119.26752,34.44161]]]}},{"type":"Feature","properties":{"name":"Nordhoff High School","c":"education"},"geometry":{"type":"Polygon","coordinates":[[[-119.26715,34.44268],[-119.26478,34.44211],[-119.26575,34.43928],[-119.27052,34.44045],[-119.26925,34.44393],[-119.26815,34.44314],[-119.26715,34.44268]]]}},{"type":"Feature","properties":{"name":"","c":"recreation"},"geometry":{"type":"Polygon","coordinates":[[[-119.26769,34.44159],[-119.26784,34.44157],[-119.26788,34.44182],[-119.26773,34.44184],[-119.26769,34.44159]]]}},{"type":"Feature","properties":{"name":"","c":"recreation"},"geometry":{"type":"Polygon","coordinates":[[[-119.26847,34.4403],[-119.26834,34.44044],[-119.26822,34.44048],[-119.26794,34.4404],[-119.26805,34.44005],[-119.26847,34.44016],[-119.26847,34.4403]]]}},{"type":"Feature","properties":{"name":"","c":"recreation"},"geometry":{"type":"Polygon","coordinates":[[[-119.26787,34.4386],[-119.26798,34.43866],[-119.26795,34.4387],[-119.26784,34.43864],[-119.26787,34.4386]]]}},{"type":"Feature","properties":{"name":"Ojai Saddle Trails","c":"protected"},"geometry":{"type":"Polygon","coordinates":[[[-119.27409,34.43539],[-119.27305,34.4353],[-119.27147,34.43214],[-119.27592,34.43257],[-119.2771,34.43259],[-119.27998,34.43249],[-119.27999,34.43269],[-119.27716,34.43271],[-119.27708,34.43405],[-119.27697,34.43405],[-119.27701,34.4363],[-119.27986,34.43638],[-119.27974,34.43943],[-119.27545,34.43789],[-119.27444,34.43969],[-119.27686,34.44039],[-119.27687,34.44059],[-119.27656,34.4418],[-119.27299,34.44103],[-119.27457,34.43613],[-119.27409,34.43539]]]}},{"type":"Feature","properties":{"name":"Krotona Institute of Theosophy","c":"religious"},"geometry":{"type":"Polygon","coordinates":[[[-119.26825,34.4379],[-119.26651,34.43751],[-119.26641,34.43743],[-119.2664,34.43708],[-119.26632,34.43687],[-119.26573,34.43631],[-119.26379,34.43595],[-119.26425,34.43426],[-119.26447,34.43361],[-119.2647,34.43322],[-119.26494,34.43299],[-119.26549,34.43263],[-119.26602,34.43243],[-119.26632,34.43237],[-119.26954,34.43198],[-119.27003,34.43198],[-119.27144,34.43211],[-119.27305,34.4353],[-119.27409,34.43539],[-119.27457,34.43613],[-119.27359,34.43915],[-119.2701,34.43837],[-119.26825,34.4379]]]}},{"type":"Feature","properties":{"name":"Ojai Valley Inn Golf Course","c":"golf"},"geometry":{"type":"Polygon","coordinates":[[[-119.25539,34.44178],[-119.25545,34.43854],[-119.25536,34.43843],[-119.25544,34.43804],[-119.25604,34.43811],[-119.25615,34.43778],[-119.25633,34.4378],[-119.25633,34.43791],[-119.25693,34.43803],[-119.2571,34.43811],[-119.25736,34.43831],[-119.25725,34.4385],[-119.25776,34.43883],[-119.25794,34.43874],[-119.25825,34.43891],[-119.25808,34.43908],[-119.25866,34.44018],[-119.2593,34.44039],[-119.25956,34.44036],[-119.25973,34.44027],[-119.26006,34.44026],[-119.26017,34.44023],[-119.26028,34.44007],[-119.26038,34.43999],[-119.26028,34.43983],[-119.26024,34.43954],[-119.26005,34.43939],[-119.25995,34.43917],[-119.25985,34.43867],[-119.25972,34.43856],[-119.25972,34.43841],[-119.25966,34.43827],[-119.25958,34.43821],[-119.2596,34.4381],[-119.2597,34.4381],[-119.25976,34.4377],[-119.25987,34.43771],[-119.25994,34.43755],[-119.25997,34.43735],[-119.25993,34.43711],[-119.25985,34.43707],[-119.25978,34.43697],[-119.2598,34.43665],[-119.25984,34.43656],[-119.2598,34.43646],[-119.25963,34.43641],[-119.25944,34.43644],[-119.25936,34.43655],[-119.25933,34.43676],[-119.25922,34.437],[-119.25919,34.43717],[-119.25915,34.43721],[-119.25907,34.43721],[-119.25901,34.4377],[-119.25906,34.43773],[-119.25906,34.43784],[-119.2591,34.43787],[-119.25911,34.43804],[-119.25927,34.43806],[-119.25925,34.43814],[-119.25892,34.43829],[-119.25879,34.43844],[-119.25868,34.43849],[-119.25852,34.43852],[-119.25839,34.4385],[-119.25822,34.4384],[-119.25807,34.43823],[-119.25754,34.43778],[-119.25733,34.4375],[-119.25715,34.4374],[-119.25681,34.43705],[-119.25631,34.43677],[-119.25631,34.43673],[-119.25656,34.43652],[-119.25664,34.43612],[-119.25637,34.43588],[-119.25551,34.43581],[-119.25553,34.43409],[-119.25517,34.43388],[-119.25512,34.43342],[-119.25541,34.43156],[-119.25579,34.43125],[-119.25782,34.43076],[-119.25876,34.43041],[-119.25896,34.43021],[-119.2589,34.42984],[-119.25896,34.42971],[-119.2591,34.42961],[-119.26043,34.43114],[-119.26026,34.43177],[-119.26042,34.43196],[-119.26118,34.43201],[-119.26299,34.43403],[-119.26288,34.43421],[-119.26228,34.43451],[-119.26221,34.43462],[-119.26191,34.43574],[-119.26187,34.43868],[-119.26182,34.43946],[-119.26158,34.43988],[-119.26103,34.44065],[-119.26027,34.44114],[-119.25976,34.44137],[-119.25556,34.44258],[-119.25533,34.44198],[-119.25539,34.44178]]]}},{"type":"Feature","properties":{"name":"","c":"recreation"},"geometry":{"type":"Polygon","coordinates":[[[-119.26611,34.43964],[-119.26603,34.43971],[-119.26579,34.43968],[-119.26574,34.4396],[-119.26581,34.43939],[-119.26611,34.43946],[-119.26613,34.4395],[-119.26611,34.43964]]]}},{"type":"Feature","properties":{"name":"","c":"recreation"},"geometry":{"type":"Polygon","coordinates":[[[-119.26577,34.44036],[-119.266,34.44013],[-119.26631,34.44005],[-119.26647,34.44006],[-119.26639,34.44062],[-119.26635,34.44065],[-119.26569,34.44056],[-119.26577,34.44036]]]}},{"type":"Feature","properties":{"name":"Nordhoff Cemetery","c":"cemetery"},"geometry":{"type":"Polygon","coordinates":[[[-119.2605,34.44467],[-119.26104,34.44482],[-119.26103,34.44538],[-119.26107,34.44593],[-119.26096,34.4466],[-119.26037,34.44653],[-119.26031,34.44596],[-119.26022,34.44558],[-119.26021,34.44533],[-119.26031,34.44485],[-119.26045,34.44468],[-119.2605,34.44467]]]}},{"type":"Feature","properties":{"name":"","c":"recreation"},"geometry":{"type":"Polygon","coordinates":[[[-119.25774,34.44367],[-119.25884,34.44323],[-119.25883,34.4435],[-119.25877,34.44361],[-119.25833,34.444],[-119.25826,34.44401],[-119.25792,34.44384],[-119.25774,34.44367]]]}},{"type":"Feature","properties":{"name":"","c":"recreation"},"geometry":{"type":"Polygon","coordinates":[[[-119.2596,34.44309],[-119.2596,34.44317],[-119.25944,34.44318],[-119.25943,34.4431],[-119.2596,34.44309]]]}},{"type":"Feature","properties":{"name":"Weinberger Memorial Park","c":"park"},"geometry":{"type":"Polygon","coordinates":[[[-119.26097,34.44161],[-119.26125,34.44178],[-119.26119,34.44184],[-119.26063,34.44177],[-119.26088,34.4416],[-119.26097,34.44161]]]}},{"type":"Feature","properties":{"name":"Rotary Community Park","c":"park"},"geometry":{"type":"MultiPolygon","coordinates":[[[[-119.26055,34.44154],[-119.26018,34.4417],[-119.2601,34.44168],[-119.25993,34.44156],[-119.25975,34.44156],[-119.25971,34.44151],[-119.26021,34.4413],[-119.26057,34.44112],[-119.26101,34.44082],[-119.26104,34.44083],[-119.26106,34.44089],[-119.26103,34.44098],[-119.26082,34.44133],[-119.26055,34.44154]]],[[[-119.25929,34.44189],[-119.25935,34.44183],[-119.25945,34.44179],[-119.25948,34.44185],[-119.25981,34.44172],[-119.25981,34.44167],[-119.2599,34.44167],[-119.26005,34.44175],[-119.25939,34.44205],[-119.25933,34.44205],[-119.25928,34.442],[-119.25929,34.44189]]]]}},{"type":"Feature","properties":{"name":"","c":"recreation"},"geometry":{"type":"Polygon","coordinates":[[[-119.25441,34.4426],[-119.25449,34.44281],[-119.25438,34.44284],[-119.25429,34.44263],[-119.25441,34.4426]]]}},{"type":"Feature","properties":{"name":"","c":"recreation"},"geometry":{"type":"Polygon","coordinates":[[[-119.25448,34.44258],[-119.2546,34.44255],[-119.25467,34.44276],[-119.25456,34.44278],[-119.25448,34.44258]]]}},{"type":"Feature","properties":{"name":"","c":"recreation"},"geometry":{"type":"Polygon","coordinates":[[[-119.25428,34.44228],[-119.25436,34.44248],[-119.25425,34.44251],[-119.25417,34.44231],[-119.25428,34.44228]]]}},{"type":"Feature","properties":{"name":"","c":"recreation"},"geometry":{"type":"Polygon","coordinates":[[[-119.25447,34.44223],[-119.25455,34.44243],[-119.25444,34.44246],[-119.25436,34.44226],[-119.25447,34.44223]]]}},{"type":"Feature","properties":{"name":"","c":"recreation"},"geometry":{"type":"Polygon","coordinates":[[[-119.25512,34.44269],[-119.25496,34.44274],[-119.25492,34.44262],[-119.25507,34.44258],[-119.25512,34.44269]]]}},{"type":"Feature","properties":{"name":"","c":"recreation"},"geometry":{"type":"Polygon","coordinates":[[[-119.25544,34.44414],[-119.25569,34.44456],[-119.25454,34.44502],[-119.2543,34.4446],[-119.25544,34.44414]]]}},{"type":"Feature","properties":{"name":"","c":"recreation"},"geometry":{"type":"Polygon","coordinates":[[[-119.25518,34.44497],[-119.25536,34.4449],[-119.2554,34.44497],[-119.25523,34.44504],[-119.25518,34.44497]]]}},{"type":"Feature","properties":{"name":"","c":"recreation"},"geometry":{"type":"Polygon","coordinates":[[[-119.25556,34.44491],[-119.25562,34.44502],[-119.2554,34.44511],[-119.25534,34.445],[-119.25556,34.44491]]]}},{"type":"Feature","properties":{"name":"","c":"recreation"},"geometry":{"type":"Polygon","coordinates":[[[-119.25537,34.44489],[-119.25555,34.44482],[-119.25559,34.44489],[-119.25542,34.44496],[-119.25537,34.44489]]]}},{"type":"Feature","properties":{"name":"","c":"recreation"},"geometry":{"type":"Polygon","coordinates":[[[-119.25556,34.44481],[-119.25574,34.44474],[-119.25578,34.44481],[-119.25561,34.44488],[-119.25556,34.44481]]]}},{"type":"Feature","properties":{"name":"","c":"recreation"},"geometry":{"type":"Polygon","coordinates":[[[-119.25579,34.44482],[-119.25585,34.44493],[-119.25563,34.44501],[-119.25557,34.44491],[-119.25579,34.44482]]]}},{"type":"Feature","properties":{"name":"","c":"recreation"},"geometry":{"type":"Polygon","coordinates":[[[-119.25587,34.44477],[-119.25598,34.44473],[-119.25609,34.44492],[-119.25598,34.44496],[-119.25587,34.44477]]]}},{"type":"Feature","properties":{"name":"","c":"recreation"},"geometry":{"type":"Polygon","coordinates":[[[-119.25624,34.44486],[-119.25613,34.4449],[-119.25602,34.44471],[-119.25613,34.44466],[-119.25624,34.44486]]]}},{"type":"Feature","properties":{"name":"","c":"recreation"},"geometry":{"type":"Polygon","coordinates":[[[-119.25572,34.44389],[-119.2559,34.44381],[-119.25606,34.44408],[-119.25589,34.44416],[-119.25572,34.44389]]]}},{"type":"Feature","properties":{"name":"","c":"recreation"},"geometry":{"type":"Polygon","coordinates":[[[-119.25607,34.44374],[-119.25623,34.44402],[-119.25606,34.44408],[-119.2559,34.44381],[-119.25607,34.44374]]]}},{"type":"Feature","properties":{"name":"","c":"recreation"},"geometry":{"type":"Polygon","coordinates":[[[-119.25625,34.44367],[-119.25641,34.44394],[-119.25623,34.44402],[-119.25607,34.44374],[-119.25625,34.44367]]]}},{"type":"Feature","properties":{"name":"","c":"recreation"},"geometry":{"type":"Polygon","coordinates":[[[-119.2564,34.44362],[-119.25653,34.44384],[-119.25639,34.4439],[-119.25626,34.44368],[-119.2564,34.44362]]]}},{"type":"Feature","properties":{"name":"Ojai Valley School","c":"education"},"geometry":{"type":"Polygon","coordinates":[[[-119.2563,34.44489],[-119.25566,34.44387],[-119.2586,34.44257],[-119.25871,34.44258],[-119.25879,34.44282],[-119.25885,34.44318],[-119.25885,34.44351],[-119.2587,34.44371],[-119.25841,34.44395],[-119.25809,34.44437],[-119.25782,34.44464],[-119.25763,34.44496],[-119.25751,34.44508],[-119.25693,34.4454],[-119.25628,34.4456],[-119.25594,34.44504],[-119.2563,34.44489]]]}},{"type":"Feature","properties":{"name":"","c":"recreation"},"geometry":{"type":"Polygon","coordinates":[[[-119.25578,34.445],[-119.25589,34.44519],[-119.25576,34.44524],[-119.25565,34.44505],[-119.25578,34.445]]]}},{"type":"Feature","properties":{"name":"","c":"recreation"},"geometry":{"type":"Polygon","coordinates":[[[-119.25551,34.44511],[-119.25564,34.44506],[-119.25575,34.44524],[-119.25562,34.44529],[-119.25551,34.44511]]]}},{"type":"Feature","properties":{"name":"","c":"recreation"},"geometry":{"type":"Polygon","coordinates":[[[-119.25533,34.44501],[-119.2554,34.44511],[-119.25529,34.44516],[-119.25522,34.44505],[-119.25533,34.44501]]]}},{"type":"Feature","properties":{"name":"","c":"recreation"},"geometry":{"type":"Polygon","coordinates":[[[-119.25599,34.44663],[-119.25604,34.44672],[-119.2558,34.4468],[-119.25575,34.44671],[-119.25599,34.44663]]]}},{"type":"Feature","properties":{"name":"Matilija Middle School","c":"education"},"geometry":{"type":"Polygon","coordinates":[[[-119.25548,34.44581],[-119.25473,34.44609],[-119.25421,34.44639],[-119.25401,34.44647],[-119.2537,34.44597],[-119.25334,34.4461],[-119.2527,34.44505],[-119.25566,34.44387],[-119.2563,34.44489],[-119.25594,34.44504],[-119.25628,34.4456],[-119.25548,34.44581]]]}},{"type":"Feature","properties":{"name":"Cluff Vista Park","c":"park"},"geometry":{"type":"Polygon","coordinates":[[[-119.25043,34.44738],[-119.24978,34.44742],[-119.24982,34.44733],[-119.25003,34.44719],[-119.25033,34.44691],[-119.25043,34.44693],[-119.25046,34.44736],[-119.25043,34.44738]]]}},{"type":"Feature","properties":{"name":"","c":"recreation"},"geometry":{"type":"Polygon","coordinates":[[[-119.2546,34.44001],[-119.2546,34.4401],[-119.25439,34.4401],[-119.25439,34.44],[-119.2546,34.44001]]]}},{"type":"Feature","properties":{"name":"","c":"recreation"},"geometry":{"type":"Polygon","coordinates":[[[-119.25338,34.43461],[-119.2535,34.43451],[-119.25377,34.43476],[-119.25362,34.43485],[-119.25339,34.43465],[-119.25338,34.43461]]]}},{"type":"Feature","properties":{"name":"","c":"recreation"},"geometry":{"type":"Polygon","coordinates":[[[-119.25382,34.43351],[-119.25387,34.43372],[-119.25375,34.43374],[-119.2537,34.43353],[-119.25382,34.43351]]]}},{"type":"Feature","properties":{"name":"Softball Field","c":"recreation"},"geometry":{"type":"Polygon","coordinates":[[[-119.26478,34.4312],[-119.26482,34.43122],[-119.2649,34.43136],[-119.26488,34.43145],[-119.26475,34.43153],[-119.26458,34.4315],[-119.26451,34.43133],[-119.26456,34.43125],[-119.26478,34.4312]]]}},{"type":"Feature","properties":{"name":"Villanova Preparatory School","c":"education"},"geometry":{"type":"Polygon","coordinates":[[[-119.2674,34.43024],[-119.26703,34.4304],[-119.26665,34.43068],[-119.26643,34.43093],[-119.26604,34.43146],[-119.26599,34.43164],[-119.26605,34.4321],[-119.26512,34.43259],[-119.26469,34.43292],[-119.26444,34.43321],[-119.26422,34.43354],[-119.26392,34.43448],[-119.26385,34.43448],[-119.26236,34.43311],[-119.26016,34.43053],[-119.25928,34.42957],[-119.25918,34.42931],[-119.25918,34.4289],[-119.25914,34.42843],[-119.25921,34.42808],[-119.25919,34.4275],[-119.259,34.42696],[-119.26033,34.42669],[-119.26198,34.42626],[-119.26461,34.42621],[-119.26533,34.42642],[-119.26658,34.42657],[-119.26917,34.42981],[-119.2674,34.43024]]]}},{"type":"Feature","properties":{"name":"Ferrari Field","c":"recreation"},"geometry":{"type":"Polygon","coordinates":[[[-119.26351,34.43041],[-119.26289,34.43073],[-119.26223,34.43068],[-119.26242,34.42981],[-119.26247,34.42978],[-119.26353,34.42987],[-119.26351,34.43041]]]}},{"type":"Feature","properties":{"name":"","c":"recreation"},"geometry":{"type":"Polygon","coordinates":[[[-119.2626,34.42939],[-119.26272,34.42941],[-119.26268,34.42962],[-119.26256,34.42961],[-119.2626,34.42939]]]}},{"type":"Feature","properties":{"name":"","c":"recreation"},"geometry":{"type":"Polygon","coordinates":[[[-119.26279,34.42942],[-119.26291,34.42943],[-119.26288,34.42964],[-119.26276,34.42963],[-119.26279,34.42942]]]}},{"type":"Feature","properties":{"name":"","c":"recreation"},"geometry":{"type":"Polygon","coordinates":[[[-119.26299,34.42944],[-119.26311,34.42945],[-119.26308,34.42966],[-119.26296,34.42965],[-119.26299,34.42944]]]}},{"type":"Feature","properties":{"name":"","c":"recreation"},"geometry":{"type":"Polygon","coordinates":[[[-119.26285,34.42888],[-119.26284,34.4291],[-119.26273,34.42909],[-119.26273,34.42888],[-119.26285,34.42888]]]}},{"type":"Feature","properties":{"name":"","c":"recreation"},"geometry":{"type":"Polygon","coordinates":[[[-119.26305,34.42888],[-119.26305,34.4291],[-119.26293,34.4291],[-119.26293,34.42888],[-119.26305,34.42888]]]}},{"type":"Feature","properties":{"name":"","c":"recreation"},"geometry":{"type":"Polygon","coordinates":[[[-119.26294,34.42855],[-119.26306,34.42855],[-119.26305,34.42877],[-119.26293,34.42877],[-119.26294,34.42855]]]}},{"type":"Feature","properties":{"name":"","c":"recreation"},"geometry":{"type":"Polygon","coordinates":[[[-119.26288,34.42858],[-119.26287,34.42881],[-119.26271,34.42881],[-119.26271,34.42858],[-119.26288,34.42858]]]}},{"type":"Feature","properties":{"name":"","c":"recreation"},"geometry":{"type":"Polygon","coordinates":[[[-119.26417,34.42774],[-119.26405,34.42821],[-119.26306,34.42804],[-119.26317,34.42758],[-119.26417,34.42774]]]}},{"type":"Feature","properties":{"name":"Camp Comfort County Park","c":"park"},"geometry":{"type":"Polygon","coordinates":[[[-119.25724,34.42376],[-119.25913,34.42507],[-119.25919,34.42519],[-119.26145,34.42526],[-119.26345,34.42507],[-119.26427,34.42479],[-119.26462,34.42612],[-119.25943,34.42625],[-119.25873,34.42651],[-119.25759,34.42634],[-119.25594,34.42637],[-119.25724,34.42376]]]}},{"type":"Feature","properties":{"name":"","c":"recreation"},"geometry":{"type":"Polygon","coordinates":[[[-119.18617,34.42916],[-119.18638,34.42915],[-119.18641,34.42947],[-119.1862,34.42949],[-119.18617,34.42916]]]}},{"type":"Feature","properties":{"name":"Dennison Park","c":"park"},"geometry":{"type":"Polygon","coordinates":[[[-119.20075,34.4382],[-119.20013,34.43778],[-119.19903,34.43752],[-119.19917,34.43688],[-119.19937,34.43668],[-119.2003,34.43528],[-119.20303,34.43423],[-119.20324,34.43472],[-119.20363,34.43501],[-119.20393,34.43553],[-119.20451,34.43611],[-119.20482,34.43655],[-119.20494,34.43667],[-119.20528,34.4369],[-119.20187,34.43777],[-119.20075,34.4382]]]}},{"type":"Feature","properties":{"name":"","c":"recreation"},"geometry":{"type":"Polygon","coordinates":[[[-119.22439,34.44569],[-119.22443,34.4459],[-119.22377,34.44598],[-119.22374,34.44576],[-119.22439,34.44569]]]}},{"type":"Feature","properties":{"name":"","c":"recreation"},"geometry":{"type":"Polygon","coordinates":[[[-119.2244,34.44606],[-119.22446,34.44644],[-119.22424,34.44647],[-119.22417,34.44609],[-119.2244,34.44606]]]}},{"type":"Feature","properties":{"name":"","c":"recreation"},"geometry":{"type":"Polygon","coordinates":[[[-119.22836,34.44221],[-119.22843,34.4422],[-119.22845,34.44234],[-119.22839,34.44235],[-119.22836,34.44221]]]}},{"type":"Feature","properties":{"name":"","c":"recreation"},"geometry":{"type":"Polygon","coordinates":[[[-119.22863,34.44218],[-119.22869,34.44217],[-119.22871,34.44231],[-119.22865,34.44231],[-119.22863,34.44218]]]}},{"type":"Feature","properties":{"name":"","c":"recreation"},"geometry":{"type":"Polygon","coordinates":[[[-119.22849,34.44219],[-119.22856,34.44219],[-119.22858,34.44232],[-119.22852,34.44233],[-119.22849,34.44219]]]}},{"type":"Feature","properties":{"name":"","c":"recreation"},"geometry":{"type":"Polygon","coordinates":[[[-119.22839,34.44241],[-119.22854,34.4424],[-119.22854,34.44245],[-119.2284,34.44247],[-119.22839,34.44241]]]}},{"type":"Feature","properties":{"name":"Mitchell Edelson Dog Park","c":"park"},"geometry":{"type":"Polygon","coordinates":[[[-119.22881,34.44138],[-119.22881,34.44179],[-119.22819,34.44186],[-119.22812,34.44146],[-119.22881,34.44138]]]}},{"type":"Feature","properties":{"name":"Soule County Park","c":"park"},"geometry":{"type":"Polygon","coordinates":[[[-119.22749,34.43967],[-119.22937,34.43925],[-119.23066,34.43909],[-119.23068,34.43937],[-119.23118,34.43933],[-119.23123,34.43956],[-119.2301,34.43984],[-119.22996,34.43994],[-119.22898,34.44093],[-119.22892,34.44116],[-119.22902,34.44113],[-119.22913,34.44114],[-119.22909,34.44178],[-119.22917,34.44259],[-119.22911,34.44273],[-119.22883,34.44287],[-119.22831,34.44294],[-119.22791,34.44294],[-119.22735,34.443],[-119.22703,34.4431],[-119.22667,34.44329],[-119.2264,34.44352],[-119.22623,34.44362],[-119.22543,34.44389],[-119.22495,34.44396],[-119.22492,34.44387],[-119.22433,34.44412],[-119.22366,34.44425],[-119.22325,34.4445],[-119.22286,34.44465],[-119.22255,34.44283],[-119.22801,34.44217],[-119.22749,34.43967]]]}},{"type":"Feature","properties":{"name":"","c":"recreation"},"geometry":{"type":"Polygon","coordinates":[[[-119.22304,34.4443],[-119.2231,34.44445],[-119.22297,34.44448],[-119.22291,34.44434],[-119.22304,34.4443]]]}},{"type":"Feature","properties":{"name":"","c":"recreation"},"geometry":{"type":"Polygon","coordinates":[[[-119.22322,34.44423],[-119.22329,34.44439],[-119.22315,34.44443],[-119.22307,34.44427],[-119.22322,34.44423]]]}},{"type":"Feature","properties":{"name":"","c":"recreation"},"geometry":{"type":"Polygon","coordinates":[[[-119.22304,34.44339],[-119.22311,34.44321],[-119.22319,34.44314],[-119.2234,34.44308],[-119.22365,34.44317],[-119.22371,34.44351],[-119.22364,34.44359],[-119.22322,34.44364],[-119.22312,34.44356],[-119.22304,34.44339]]]}},{"type":"Feature","properties":{"name":"","c":"recreation"},"geometry":{"type":"Polygon","coordinates":[[[-119.22874,34.44014],[-119.22867,34.43987],[-119.22872,34.4398],[-119.22939,34.43967],[-119.22948,34.4397],[-119.22956,34.43998],[-119.22955,34.44004],[-119.22882,34.44018],[-119.22874,34.44014]]]}},{"type":"Feature","properties":{"name":"","c":"recreation"},"geometry":{"type":"Polygon","coordinates":[[[-119.23011,34.43948],[-119.23014,34.4396],[-119.23011,34.43965],[-119.22964,34.43975],[-119.22955,34.4397],[-119.22953,34.43958],[-119.22955,34.43953],[-119.23006,34.43943],[-119.23011,34.43948]]]}},{"type":"Feature","properties":{"name":"","c":"recreation"},"geometry":{"type":"Polygon","coordinates":[[[-119.24544,34.43637],[-119.24552,34.43644],[-119.24543,34.43652],[-119.24534,34.43644],[-119.24544,34.43637]]]}},{"type":"Feature","properties":{"name":"","c":"recreation"},"geometry":{"type":"Polygon","coordinates":[[[-119.24705,34.43552],[-119.2472,34.43547],[-119.24724,34.43551],[-119.2472,34.43583],[-119.24716,34.43589],[-119.24692,34.43593],[-119.24669,34.43587],[-119.24682,34.43548],[-119.24705,34.43552]]]}},{"type":"Feature","properties":{"name":"","c":"recreation"},"geometry":{"type":"Polygon","coordinates":[[[-119.24573,34.43728],[-119.24577,34.43731],[-119.2458,34.43754],[-119.24577,34.43758],[-119.2456,34.43758],[-119.24558,34.43732],[-119.24562,34.43728],[-119.24573,34.43728]]]}},{"type":"Feature","properties":{"name":"","c":"recreation"},"geometry":{"type":"Polygon","coordinates":[[[-119.2432,34.43859],[-119.24264,34.43892],[-119.24241,34.43857],[-119.24301,34.43833],[-119.2432,34.43859]]]}},{"type":"Feature","properties":{"name":"Soule Park Golf Course","c":"golf"},"geometry":{"type":"Polygon","coordinates":[[[-119.23834,34.43733],[-119.24007,34.43685],[-119.24037,34.43723],[-119.23958,34.43773],[-119.23916,34.43796],[-119.23889,34.43833],[-119.23753,34.43914],[-119.23564,34.44005],[-119.23466,34.44086],[-119.23319,34.44151],[-119.23351,34.44202],[-119.23466,34.44343],[-119.23515,34.44375],[-119.23528,34.44521],[-119.23458,34.44525],[-119.2346,34.44543],[-119.23245,34.4454],[-119.23195,34.44556],[-119.2317,34.44545],[-119.23145,34.44547],[-119.23119,34.44572],[-119.23152,34.44598],[-119.23147,34.44631],[-119.23375,34.44704],[-119.23434,34.44687],[-119.23459,34.44702],[-119.23468,34.44841],[-119.23143,34.44857],[-119.23138,34.44802],[-119.23082,34.44804],[-119.23077,34.44739],[-119.23025,34.44741],[-119.23015,34.44583],[-119.22986,34.4458],[-119.22967,34.44553],[-119.22958,34.4453],[-119.22961,34.44514],[-119.22909,34.44466],[-119.22738,34.44566],[-119.22701,34.44603],[-119.22693,34.44631],[-119.22674,34.44671],[-119.22636,34.44686],[-119.22538,34.44701],[-119.2252,34.44599],[-119.22528,34.44598],[-119.22495,34.44405],[-119.22597,34.44388],[-119.22639,34.44376],[-119.22681,34.44349],[-119.22716,34.44334],[-119.22754,34.44323],[-119.22812,34.44314],[-119.22846,34.44316],[-119.22889,34.44306],[-119.22924,34.44305],[-119.22935,34.44301],[-119.22936,34.4426],[-119.22948,34.44175],[-119.22974,34.4409],[-119.22991,34.44071],[-119.23012,34.43988],[-119.23123,34.43956],[-119.23118,34.43933],[-119.23068,34.43937],[-119.23066,34.43909],[-119.2328,34.43886],[-119.23394,34.43808],[-119.23511,34.43866],[-119.2374,34.43777],[-119.23834,34.43733]]]}},{"type":"Feature","properties":{"name":"","c":"park"},"geometry":{"type":"Polygon","coordinates":[[[-119.23945,34.44718],[-119.23951,34.44719],[-119.23945,34.44726],[-119.23943,34.44721],[-119.23931,34.44722],[-119.2393,34.44711],[-119.23945,34.4471],[-119.23945,34.44718]]]}},{"type":"Feature","properties":{"name":"","c":"recreation"},"geometry":{"type":"Polygon","coordinates":[[[-119.24106,34.44869],[-119.24101,34.44865],[-119.2411,34.44835],[-119.24117,34.44833],[-119.24147,34.44857],[-119.24136,34.44866],[-119.24106,34.44869]]]}},{"type":"Feature","properties":{"name":"Ojai Unified School District","c":"education"},"geometry":{"type":"Polygon","coordinates":[[[-119.24284,34.44987],[-119.24167,34.44993],[-119.24166,34.44943],[-119.24074,34.44949],[-119.2411,34.44835],[-119.24109,34.44822],[-119.2429,34.4481],[-119.2429,34.44983],[-119.24284,34.44987]]]}},{"type":"Feature","properties":{"name":"Weil Tennis Academy","c":"education"},"geometry":{"type":"Polygon","coordinates":[[[-119.23967,34.44468],[-119.23963,34.44474],[-119.23929,34.44477],[-119.23908,34.44474],[-119.23905,34.44469],[-119.23901,34.44427],[-119.23981,34.44393],[-119.23985,34.44426],[-119.23989,34.4443],[-119.23996,34.44467],[-119.23967,34.44468]]]}},{"type":"Feature","properties":{"name":"","c":"recreation"},"geometry":{"type":"Polygon","coordinates":[[[-119.24002,34.444],[-119.24004,34.44422],[-119.2399,34.44423],[-119.23988,34.44401],[-119.24002,34.444]]]}},{"type":"Feature","properties":{"name":"","c":"recreation"},"geometry":{"type":"Polygon","coordinates":[[[-119.2401,34.44391],[-119.24024,34.4439],[-119.24026,34.44413],[-119.24012,34.44414],[-119.2401,34.44391]]]}},{"type":"Feature","properties":{"name":"","c":"recreation"},"geometry":{"type":"Polygon","coordinates":[[[-119.24041,34.44424],[-119.24043,34.44446],[-119.2403,34.44447],[-119.24028,34.44425],[-119.24041,34.44424]]]}},{"type":"Feature","properties":{"name":"","c":"recreation"},"geometry":{"type":"Polygon","coordinates":[[[-119.24029,34.44383],[-119.24043,34.44382],[-119.24045,34.44405],[-119.24032,34.44406],[-119.24029,34.44383]]]}},{"type":"Feature","properties":{"name":"","c":"recreation"},"geometry":{"type":"Polygon","coordinates":[[[-119.24058,34.44375],[-119.24072,34.44374],[-119.24074,34.44397],[-119.2406,34.44398],[-119.24058,34.44375]]]}},{"type":"Feature","properties":{"name":"","c":"recreation"},"geometry":{"type":"Polygon","coordinates":[[[-119.24092,34.44387],[-119.24105,34.44387],[-119.24107,34.44409],[-119.24094,34.44409],[-119.24092,34.44387]]]}},{"type":"Feature","properties":{"name":"Pickle ball","c":"recreation"},"geometry":{"type":"Polygon","coordinates":[[[-119.24126,34.44386],[-119.24128,34.44408],[-119.24114,34.44409],[-119.24112,34.44387],[-119.24126,34.44386]]]}},{"type":"Feature","properties":{"name":"","c":"recreation"},"geometry":{"type":"Polygon","coordinates":[[[-119.24122,34.44354],[-119.24124,34.44376],[-119.2411,34.44377],[-119.24109,34.44355],[-119.24122,34.44354]]]}},{"type":"Feature","properties":{"name":"","c":"recreation"},"geometry":{"type":"Polygon","coordinates":[[[-119.24088,34.44355],[-119.24102,34.44354],[-119.24103,34.44376],[-119.2409,34.44377],[-119.24088,34.44355]]]}},{"type":"Feature","properties":{"name":"","c":"recreation"},"geometry":{"type":"Polygon","coordinates":[[[-119.24159,34.44421],[-119.24172,34.4442],[-119.24173,34.44443],[-119.2416,34.44443],[-119.24159,34.44421]]]}},{"type":"Feature","properties":{"name":"","c":"recreation"},"geometry":{"type":"Polygon","coordinates":[[[-119.2419,34.44417],[-119.24192,34.44438],[-119.24179,34.44439],[-119.24177,34.44418],[-119.2419,34.44417]]]}},{"type":"Feature","properties":{"name":"","c":"recreation"},"geometry":{"type":"Polygon","coordinates":[[[-119.24152,34.44482],[-119.24165,34.44481],[-119.24167,34.44502],[-119.24154,34.44503],[-119.24152,34.44482]]]}},{"type":"Feature","properties":{"name":"","c":"recreation"},"geometry":{"type":"Polygon","coordinates":[[[-119.24172,34.44481],[-119.24184,34.4448],[-119.24186,34.44501],[-119.24174,34.44501],[-119.24172,34.44481]]]}},{"type":"Feature","properties":{"name":"","c":"recreation"},"geometry":{"type":"Polygon","coordinates":[[[-119.24216,34.44477],[-119.24228,34.44476],[-119.2423,34.44498],[-119.24218,34.44499],[-119.24216,34.44477]]]}},{"type":"Feature","properties":{"name":"","c":"recreation"},"geometry":{"type":"Polygon","coordinates":[[[-119.24192,34.44479],[-119.24204,34.44478],[-119.24206,34.44499],[-119.24194,34.445],[-119.24192,34.44479]]]}},{"type":"Feature","properties":{"name":"","c":"recreation"},"geometry":{"type":"Polygon","coordinates":[[[-119.24236,34.44476],[-119.24247,34.44475],[-119.2425,34.44497],[-119.24238,34.44497],[-119.24236,34.44476]]]}},{"type":"Feature","properties":{"name":"","c":"recreation"},"geometry":{"type":"Polygon","coordinates":[[[-119.24256,34.44474],[-119.24268,34.44474],[-119.2427,34.44495],[-119.24258,34.44496],[-119.24256,34.44474]]]}},{"type":"Feature","properties":{"name":"","c":"recreation"},"geometry":{"type":"Polygon","coordinates":[[[-119.24268,34.4444],[-119.24271,34.44462],[-119.24258,34.44463],[-119.24255,34.44441],[-119.24268,34.4444]]]}},{"type":"Feature","properties":{"name":"","c":"recreation"},"geometry":{"type":"Polygon","coordinates":[[[-119.2427,34.44405],[-119.2427,34.44427],[-119.24256,34.44428],[-119.24256,34.44406],[-119.2427,34.44405]]]}},{"type":"Feature","properties":{"name":"","c":"recreation"},"geometry":{"type":"Polygon","coordinates":[[[-119.24513,34.444],[-119.24519,34.44401],[-119.24517,34.44411],[-119.24511,34.4441],[-119.24513,34.444]]]}},{"type":"Feature","properties":{"name":"","c":"recreation"},"geometry":{"type":"Polygon","coordinates":[[[-119.24502,34.44417],[-119.24514,34.44418],[-119.24511,34.4444],[-119.24499,34.44438],[-119.24502,34.44417]]]}},{"type":"Feature","properties":{"name":"","c":"recreation"},"geometry":{"type":"Polygon","coordinates":[[[-119.24505,34.44399],[-119.24511,34.444],[-119.24509,34.4441],[-119.24503,34.44409],[-119.24505,34.44399]]]}},{"type":"Feature","properties":{"name":"","c":"recreation"},"geometry":{"type":"Polygon","coordinates":[[[-119.24483,34.44391],[-119.24495,34.44393],[-119.2449,34.44414],[-119.24478,34.44412],[-119.24483,34.44391]]]}},{"type":"Feature","properties":{"name":"","c":"recreation"},"geometry":{"type":"Polygon","coordinates":[[[-119.24512,34.4437],[-119.24524,34.44372],[-119.2452,34.44393],[-119.24508,34.44392],[-119.24512,34.4437]]]}},{"type":"Feature","properties":{"name":"","c":"recreation"},"geometry":{"type":"Polygon","coordinates":[[[-119.24459,34.44408],[-119.24464,34.44387],[-119.24476,34.44389],[-119.2447,34.4441],[-119.24459,34.44408]]]}},{"type":"Feature","properties":{"name":"Ojai Pickleball","c":"park"},"geometry":{"type":"Polygon","coordinates":[[[-119.24682,34.44412],[-119.24703,34.44411],[-119.24706,34.44441],[-119.24685,34.44443],[-119.24682,34.44412]]]}},{"type":"Feature","properties":{"name":"","c":"recreation"},"geometry":{"type":"Polygon","coordinates":[[[-119.24507,34.44587],[-119.24519,34.44587],[-119.24519,34.44609],[-119.24507,34.44609],[-119.24507,34.44587]]]}},{"type":"Feature","properties":{"name":"","c":"recreation"},"geometry":{"type":"Polygon","coordinates":[[[-119.24487,34.44587],[-119.24499,34.44587],[-119.24499,34.44609],[-119.24487,34.44609],[-119.24487,34.44587]]]}},{"type":"Feature","properties":{"name":"Libbey Park","c":"park"},"geometry":{"type":"Polygon","coordinates":[[[-119.24593,34.44521],[-119.24587,34.44701],[-119.24549,34.44701],[-119.24557,34.4477],[-119.24482,34.44776],[-119.24476,34.44731],[-119.24466,34.44725],[-119.2444,34.44721],[-119.24407,34.44705],[-119.24403,34.44688],[-119.24404,34.44685],[-119.24415,34.44684],[-119.24451,34.44653],[-119.24452,34.4457],[-119.24495,34.44553],[-119.24499,34.4453],[-119.24397,34.44503],[-119.24361,34.445],[-119.24365,34.44439],[-119.24376,34.44419],[-119.24403,34.444],[-119.24512,34.44358],[-119.2453,34.4436],[-119.2453,34.4444],[-119.24544,34.44483],[-119.24563,34.44482],[-119.24573,34.4452],[-119.24593,34.44521]]]}},{"type":"Feature","properties":{"name":"","c":"recreation"},"geometry":{"type":"Polygon","coordinates":[[[-119.24487,34.4462],[-119.24499,34.4462],[-119.24498,34.44641],[-119.24486,34.44641],[-119.24487,34.4462]]]}},{"type":"Feature","properties":{"name":"","c":"recreation"},"geometry":{"type":"Polygon","coordinates":[[[-119.24483,34.44583],[-119.24523,34.44583],[-119.24522,34.44648],[-119.24482,34.44648],[-119.24483,34.44583]]]}},{"type":"Feature","properties":{"name":"","c":"recreation"},"geometry":{"type":"Polygon","coordinates":[[[-119.24518,34.44641],[-119.24506,34.44641],[-119.24507,34.4462],[-119.24518,34.4462],[-119.24518,34.44641]]]}},{"type":"Feature","properties":{"name":"Arcade Lawn","c":"park"},"geometry":{"type":"Polygon","coordinates":[[[-119.24464,34.44839],[-119.24464,34.44848],[-119.24451,34.44849],[-119.24443,34.44832],[-119.2448,34.44834],[-119.24485,34.44837],[-119.24464,34.44839]]]}},{"type":"Feature","properties":{"name":"","c":"recreation"},"geometry":{"type":"Polygon","coordinates":[[[-119.2482,34.45691],[-119.24807,34.45692],[-119.24796,34.45687],[-119.24791,34.45677],[-119.24792,34.45672],[-119.24805,34.4566],[-119.24818,34.4566],[-119.24831,34.45672],[-119.24829,34.45683],[-119.2482,34.45691]]]}},{"type":"Feature","properties":{"name":"","c":"recreation"},"geometry":{"type":"Polygon","coordinates":[[[-119.23976,34.45476],[-119.23981,34.45469],[-119.23991,34.45469],[-119.23996,34.45473],[-119.23996,34.45479],[-119.23992,34.45483],[-119.2398,34.45483],[-119.23976,34.45476]]]}},{"type":"Feature","properties":{"name":"","c":"recreation"},"geometry":{"type":"Polygon","coordinates":[[[-119.24015,34.45439],[-119.24047,34.45437],[-119.24052,34.45473],[-119.24019,34.45476],[-119.24015,34.45439]]]}},{"type":"Feature","properties":{"name":"","c":"recreation"},"geometry":{"type":"Polygon","coordinates":[[[-119.24209,34.45253],[-119.2422,34.45253],[-119.24219,34.45263],[-119.24209,34.45263],[-119.24209,34.45253]]]}},{"type":"Feature","properties":{"name":"","c":"recreation"},"geometry":{"type":"Polygon","coordinates":[[[-119.23664,34.45119],[-119.23664,34.45193],[-119.23609,34.45194],[-119.23609,34.4512],[-119.23664,34.45119]]]}},{"type":"Feature","properties":{"name":"","c":"recreation"},"geometry":{"type":"Polygon","coordinates":[[[-119.236,34.45198],[-119.23593,34.452],[-119.23571,34.45199],[-119.23564,34.45193],[-119.23565,34.45173],[-119.23579,34.45163],[-119.23595,34.45164],[-119.23607,34.45173],[-119.23609,34.45186],[-119.236,34.45198]]]}},{"type":"Feature","properties":{"name":"Sarzotti Park","c":"park"},"geometry":{"type":"Polygon","coordinates":[[[-119.237,34.45227],[-119.23688,34.45249],[-119.23656,34.45277],[-119.23646,34.45273],[-119.2361,34.45269],[-119.23599,34.45307],[-119.23536,34.45309],[-119.23535,34.45071],[-119.23705,34.45062],[-119.23702,34.45214],[-119.237,34.45227]]]}},{"type":"Feature","properties":{"name":"","c":"recreation"},"geometry":{"type":"Polygon","coordinates":[[[-119.23561,34.45214],[-119.23541,34.45213],[-119.23541,34.45206],[-119.23561,34.45206],[-119.23561,34.45214]]]}},{"type":"Feature","properties":{"name":"","c":"recreation"},"geometry":{"type":"Polygon","coordinates":[[[-119.2366,34.45117],[-119.23646,34.4511],[-119.23641,34.45098],[-119.23645,34.45086],[-119.2368,34.45085],[-119.23681,34.45113],[-119.23675,34.45116],[-119.2366,34.45117]]]}},{"type":"Feature","properties":{"name":"","c":"recreation"},"geometry":{"type":"Polygon","coordinates":[[[-119.23498,34.45862],[-119.23497,34.45873],[-119.23481,34.45873],[-119.23481,34.45862],[-119.23498,34.45862]]]}},{"type":"Feature","properties":{"name":"","c":"recreation"},"geometry":{"type":"Polygon","coordinates":[[[-119.23498,34.45874],[-119.23498,34.45885],[-119.23481,34.45885],[-119.23481,34.45874],[-119.23498,34.45874]]]}},{"type":"Feature","properties":{"name":"","c":"recreation"},"geometry":{"type":"Polygon","coordinates":[[[-119.2352,34.45874],[-119.2352,34.45886],[-119.23501,34.45886],[-119.23501,34.45874],[-119.2352,34.45874]]]}},{"type":"Feature","properties":{"name":"Topa Topa Elementary School","c":"education"},"geometry":{"type":"Polygon","coordinates":[[[-119.23615,34.45754],[-119.23618,34.46],[-119.23473,34.45996],[-119.23478,34.4575],[-119.23615,34.45754]]]}},{"type":"Feature","properties":{"name":"","c":"recreation"},"geometry":{"type":"Polygon","coordinates":[[[-119.23588,34.45925],[-119.23573,34.45924],[-119.23562,34.45916],[-119.2356,34.45904],[-119.23566,34.45892],[-119.23598,34.45892],[-119.23599,34.45916],[-119.23588,34.45925]]]}},{"type":"Feature","properties":{"name":"Daly Ranch Park","c":"park"},"geometry":{"type":"Polygon","coordinates":[[[-119.23983,34.46045],[-119.23983,34.46013],[-119.2408,34.46014],[-119.24072,34.46042],[-119.24036,34.46091],[-119.23986,34.46089],[-119.23989,34.46054],[-119.23983,34.46045]]]}},{"type":"Feature","properties":{"name":"Valley View Preserve","c":"protected"},"geometry":{"type":"Polygon","coordinates":[[[-119.23679,34.47041],[-119.23686,34.46486],[-119.23707,34.46463],[-119.23727,34.46454],[-119.23738,34.46454],[-119.23748,34.46461],[-119.23752,34.46472],[-119.23753,34.46505],[-119.23746,34.46527],[-119.23753,34.46551],[-119.23755,34.4657],[-119.23778,34.46606],[-119.23799,34.46615],[-119.23814,34.46612],[-119.23867,34.46583],[-119.23924,34.46556],[-119.23951,34.46562],[-119.23998,34.46563],[-119.24008,34.46556],[-119.24011,34.46547],[-119.24009,34.46491],[-119.24014,34.46483],[-119.24031,34.4647],[-119.24055,34.46461],[-119.24076,34.46464],[-119.24097,34.46475],[-119.24103,34.46484],[-119.24096,34.46506],[-119.24097,34.46516],[-119.24107,34.46531],[-119.24109,34.46543],[-119.24119,34.46551],[-119.24145,34.46552],[-119.24172,34.46527],[-119.24191,34.46518],[-119.24204,34.46521],[-119.24213,34.46531],[-119.24212,34.46546],[-119.24218,34.46558],[-119.24228,34.46562],[-119.2424,34.4656],[-119.24314,34.46503],[-119.24334,34.46497],[-119.2435,34.46504],[-119.24359,34.46517],[-119.24361,34.46535],[-119.24358,34.46558],[-119.24363,34.46567],[-119.24376,34.46575],[-119.24392,34.4657],[-119.24434,34.46526],[-119.24464,34.46439],[-119.24477,34.46419],[-119.24502,34.46393],[-119.24529,34.46345],[-119.25029,34.46348],[-119.25025,34.47057],[-119.23679,34.47041]]]}},{"type":"Feature","properties":{"name":"","c":"recreation"},"geometry":{"type":"Polygon","coordinates":[[[-119.22278,34.47146],[-119.22275,34.4714],[-119.22277,34.47134],[-119.22283,34.47129],[-119.22332,34.47123],[-119.2234,34.47126],[-119.22344,34.47132],[-119.22342,34.47139],[-119.22336,34.47144],[-119.22284,34.47149],[-119.22278,34.47146]]]}},{"type":"Feature","properties":{"name":"","c":"recreation"},"geometry":{"type":"Polygon","coordinates":[[[-119.22243,34.47162],[-119.22254,34.47166],[-119.22245,34.47185],[-119.22234,34.47182],[-119.22243,34.47162]]]}},{"type":"Feature","properties":{"name":"","c":"recreation"},"geometry":{"type":"Polygon","coordinates":[[[-119.22065,34.4719],[-119.22063,34.47174],[-119.22067,34.47154],[-119.22088,34.47153],[-119.22102,34.47186],[-119.22084,34.47203],[-119.22077,34.47201],[-119.22065,34.4719]]]}},{"type":"Feature","properties":{"name":"","c":"recreation"},"geometry":{"type":"Polygon","coordinates":[[[-119.22128,34.47236],[-119.22124,34.47242],[-119.22116,34.47242],[-119.22112,34.47238],[-119.22115,34.47229],[-119.22126,34.4723],[-119.22128,34.47236]]]}},{"type":"Feature","properties":{"name":"","c":"recreation"},"geometry":{"type":"Polygon","coordinates":[[[-119.21336,34.47353],[-119.21328,34.4734],[-119.21362,34.47329],[-119.21369,34.47341],[-119.21336,34.47353]]]}},{"type":"Feature","properties":{"name":"","c":"golf"},"geometry":{"type":"Polygon","coordinates":[[[-119.21372,34.47336],[-119.21381,34.4734],[-119.21383,34.47353],[-119.21381,34.47358],[-119.21374,34.4736],[-119.21359,34.4735],[-119.2136,34.47345],[-119.21369,34.47341],[-119.21367,34.47338],[-119.21372,34.47336]]]}},{"type":"Feature","properties":{"name":"","c":"golf"},"geometry":{"type":"Polygon","coordinates":[[[-119.21293,34.4731],[-119.21292,34.47305],[-119.21304,34.47302],[-119.21308,34.47311],[-119.21299,34.47314],[-119.21293,34.4731]]]}},{"type":"Feature","properties":{"name":"","c":"recreation"},"geometry":{"type":"Polygon","coordinates":[[[-119.22,34.47185],[-119.22026,34.47184],[-119.22025,34.47209],[-119.21998,34.47209],[-119.22,34.47185]]]}},{"type":"Feature","properties":{"name":"","c":"recreation"},"geometry":{"type":"Polygon","coordinates":[[[-119.21279,34.46803],[-119.21303,34.46811],[-119.21299,34.4682],[-119.21275,34.46812],[-119.21279,34.46803]]]}},{"type":"Feature","properties":{"name":"","c":"recreation"},"geometry":{"type":"Polygon","coordinates":[[[-119.22722,34.44906],[-119.22748,34.44905],[-119.22753,34.44911],[-119.22754,34.44932],[-119.2275,34.44935],[-119.22716,34.44935],[-119.22716,34.44911],[-119.22722,34.44906]]]}},{"type":"Feature","properties":{"name":"","c":"recreation"},"geometry":{"type":"Polygon","coordinates":[[[-119.22696,34.45037],[-119.22698,34.45028],[-119.22702,34.45024],[-119.22713,34.4502],[-119.22724,34.45024],[-119.22728,34.45033],[-119.22725,34.45041],[-119.22718,34.45044],[-119.22704,34.45044],[-119.22696,34.45037]]]}},{"type":"Feature","properties":{"name":"","c":"recreation"},"geometry":{"type":"Polygon","coordinates":[[[-119.22203,34.45021],[-119.22208,34.45009],[-119.22216,34.45005],[-119.22247,34.45014],[-119.22252,34.45021],[-119.22248,34.45034],[-119.22239,34.45037],[-119.22207,34.45029],[-119.22203,34.45021]]]}},{"type":"Feature","properties":{"name":"","c":"recreation"},"geometry":{"type":"Polygon","coordinates":[[[-119.20595,34.45536],[-119.20583,34.45536],[-119.20583,34.45515],[-119.20595,34.45515],[-119.20595,34.45536]]]}},{"type":"Feature","properties":{"name":"San Antonio Elementary School","c":"education"},"geometry":{"type":"Polygon","coordinates":[[[-119.20419,34.45529],[-119.20422,34.45381],[-119.20616,34.45471],[-119.20615,34.45545],[-119.20609,34.45554],[-119.20438,34.45553],[-119.20438,34.45529],[-119.20419,34.45529]]]}},{"type":"Feature","properties":{"name":"","c":"recreation"},"geometry":{"type":"Polygon","coordinates":[[[-119.20481,34.45544],[-119.20475,34.45533],[-119.20483,34.45522],[-119.20493,34.4552],[-119.20506,34.45528],[-119.20508,34.45543],[-119.20503,34.45547],[-119.20481,34.45544]]]}},{"type":"Feature","properties":{"name":"","c":"recreation"},"geometry":{"type":"Polygon","coordinates":[[[-119.19593,34.45466],[-119.19597,34.45462],[-119.19613,34.45462],[-119.19614,34.45492],[-119.19611,34.45495],[-119.19595,34.45496],[-119.19593,34.45466]]]}},{"type":"Feature","properties":{"name":"","c":"recreation"},"geometry":{"type":"Polygon","coordinates":[[[-119.19801,34.45684],[-119.19802,34.45671],[-119.19815,34.45671],[-119.19814,34.45684],[-119.19801,34.45684]]]}},{"type":"Feature","properties":{"name":"Monica Ros School","c":"education"},"geometry":{"type":"Polygon","coordinates":[[[-119.19837,34.45618],[-119.19837,34.45685],[-119.19732,34.45685],[-119.19734,34.45617],[-119.19837,34.45618]]]}},{"type":"Feature","properties":{"name":"","c":"recreation"},"geometry":{"type":"Polygon","coordinates":[[[-119.19802,34.45621],[-119.19827,34.45624],[-119.19827,34.45628],[-119.19819,34.45631],[-119.19821,34.4564],[-119.19804,34.4564],[-119.19802,34.45621]]]}},{"type":"Feature","properties":{"name":"","c":"recreation"},"geometry":{"type":"Polygon","coordinates":[[[-119.17478,34.45995],[-119.17495,34.4597],[-119.17506,34.45967],[-119.17579,34.46002],[-119.17582,34.46009],[-119.17564,34.46036],[-119.17554,34.46038],[-119.17482,34.46003],[-119.17478,34.45995]]]}},{"type":"Feature","properties":{"name":"","c":"recreation"},"geometry":{"type":"Polygon","coordinates":[[[-119.17782,34.46074],[-119.17786,34.46082],[-119.17786,34.46093],[-119.17738,34.46107],[-119.17705,34.46142],[-119.17671,34.46163],[-119.17652,34.46161],[-119.17607,34.46103],[-119.17606,34.4609],[-119.17617,34.4605],[-119.17635,34.46031],[-119.17641,34.46031],[-119.1776,34.46064],[-119.17782,34.46074]]]}},{"type":"Feature","properties":{"name":"","c":"recreation"},"geometry":{"type":"Polygon","coordinates":[[[-119.17715,34.46148],[-119.17746,34.46112],[-119.17754,34.46111],[-119.17765,34.46118],[-119.17766,34.46124],[-119.17735,34.4616],[-119.17727,34.46161],[-119.17716,34.46154],[-119.17715,34.46148]]]}},{"type":"Feature","properties":{"name":"","c":"recreation"},"geometry":{"type":"Polygon","coordinates":[[[-119.17767,34.46446],[-119.17753,34.46428],[-119.17754,34.46424],[-119.17793,34.46406],[-119.1781,34.46428],[-119.17767,34.46446]]]}},{"type":"Feature","properties":{"name":"","c":"recreation"},"geometry":{"type":"Polygon","coordinates":[[[-119.17846,34.46412],[-119.17818,34.46425],[-119.17801,34.46402],[-119.1783,34.46389],[-119.17846,34.46412]]]}},{"type":"Feature","properties":{"name":"Thacher School","c":"education"},"geometry":{"type":"Polygon","coordinates":[[[-119.17794,34.46181],[-119.17916,34.46259],[-119.18032,34.46325],[-119.18163,34.46276],[-119.18409,34.46281],[-119.18408,34.46357],[-119.18482,34.46347],[-119.18586,34.46347],[-119.1856,34.46382],[-119.18698,34.46431],[-119.18695,34.4657],[-119.18689,34.46584],[-119.18571,34.46636],[-119.18484,34.46644],[-119.18452,34.46671],[-119.18427,34.4673],[-119.18396,34.46789],[-119.1828,34.46752],[-119.18261,34.46781],[-119.18324,34.4683],[-119.18295,34.4687],[-119.18204,34.4686],[-119.17997,34.46846],[-119.17932,34.4686],[-119.17883,34.46867],[-119.17842,34.46864],[-119.17797,34.46872],[-119.1773,34.46796],[-119.177,34.4674],[-119.17664,34.46726],[-119.17657,34.46709],[-119.17675,34.46696],[-119.17455,34.46746],[-119.17382,34.46728],[-119.17124,34.4653],[-119.17124,34.46263],[-119.16913,34.46262],[-119.17186,34.46072],[-119.17159,34.46022],[-119.17291,34.45998],[-119.17326,34.45843],[-119.17596,34.46],[-119.17803,34.46069],[-119.17794,34.46181]]]}},{"type":"Feature","properties":{"name":"","c":"recreation"},"geometry":{"type":"Polygon","coordinates":[[[-119.17906,34.46263],[-119.1799,34.46321],[-119.17952,34.46359],[-119.17868,34.46301],[-119.17906,34.46263]]]}},{"type":"Feature","properties":{"name":"","c":"recreation"},"geometry":{"type":"Polygon","coordinates":[[[-119.18288,34.46359],[-119.18319,34.4637],[-119.18307,34.46392],[-119.18276,34.4638],[-119.18288,34.46359]]]}},{"type":"Feature","properties":{"name":"","c":"recreation"},"geometry":{"type":"Polygon","coordinates":[[[-119.18259,34.46484],[-119.18271,34.46484],[-119.18271,34.46506],[-119.18259,34.46506],[-119.18259,34.46484]]]}},{"type":"Feature","properties":{"name":"","c":"recreation"},"geometry":{"type":"Polygon","coordinates":[[[-119.18259,34.46451],[-119.18271,34.46451],[-119.18271,34.46473],[-119.18259,34.46473],[-119.18259,34.46451]]]}},{"type":"Feature","properties":{"name":"","c":"recreation"},"geometry":{"type":"Polygon","coordinates":[[[-119.18291,34.46451],[-119.18303,34.46451],[-119.18303,34.46472],[-119.18291,34.46473],[-119.18291,34.46451]]]}},{"type":"Feature","properties":{"name":"","c":"recreation"},"geometry":{"type":"Polygon","coordinates":[[[-119.18291,34.46484],[-119.18303,34.46484],[-119.18303,34.46506],[-119.18291,34.46506],[-119.18291,34.46484]]]}},{"type":"Feature","properties":{"name":"","c":"recreation"},"geometry":{"type":"Polygon","coordinates":[[[-119.18314,34.46484],[-119.18326,34.46484],[-119.18326,34.46505],[-119.18314,34.46505],[-119.18314,34.46484]]]}},{"type":"Feature","properties":{"name":"","c":"recreation"},"geometry":{"type":"Polygon","coordinates":[[[-119.18314,34.46451],[-119.18326,34.46451],[-119.18326,34.46472],[-119.18314,34.46472],[-119.18314,34.46451]]]}},{"type":"Feature","properties":{"name":"","c":"recreation"},"geometry":{"type":"Polygon","coordinates":[[[-119.1845,34.46467],[-119.18515,34.46467],[-119.18514,34.46566],[-119.18449,34.46566],[-119.1845,34.46467]]]}},{"type":"Feature","properties":{"name":"","c":"recreation"},"geometry":{"type":"Polygon","coordinates":[[[-119.18468,34.46402],[-119.1848,34.46402],[-119.18479,34.46424],[-119.18467,34.46423],[-119.18468,34.46402]]]}},{"type":"Feature","properties":{"name":"","c":"recreation"},"geometry":{"type":"Polygon","coordinates":[[[-119.18519,34.46404],[-119.18531,34.46404],[-119.1853,34.46426],[-119.18518,34.46425],[-119.18519,34.46404]]]}},{"type":"Feature","properties":{"name":"","c":"recreation"},"geometry":{"type":"Polygon","coordinates":[[[-119.18539,34.46404],[-119.18551,34.46405],[-119.1855,34.46426],[-119.18538,34.46426],[-119.18539,34.46404]]]}},{"type":"Feature","properties":{"name":"","c":"recreation"},"geometry":{"type":"Polygon","coordinates":[[[-119.18488,34.46403],[-119.185,34.46403],[-119.18499,34.46424],[-119.18487,34.46424],[-119.18488,34.46403]]]}},{"type":"Feature","properties":{"name":"","c":"recreation"},"geometry":{"type":"Polygon","coordinates":[[[-119.18599,34.46519],[-119.18613,34.46525],[-119.18622,34.46536],[-119.18622,34.46555],[-119.18578,34.46558],[-119.18575,34.46522],[-119.18599,34.46519]]]}},{"type":"Feature","properties":{"name":"","c":"recreation"},"geometry":{"type":"Polygon","coordinates":[[[-119.18891,34.46644],[-119.18903,34.46644],[-119.18902,34.46665],[-119.1889,34.46665],[-119.18891,34.46644]]]}},{"type":"Feature","properties":{"name":"","c":"recreation"},"geometry":{"type":"Polygon","coordinates":[[[-119.18336,34.46727],[-119.18347,34.46699],[-119.18379,34.46706],[-119.18366,34.46743],[-119.18336,34.46734],[-119.18336,34.46727]]]}},{"type":"Feature","properties":{"name":"","c":"recreation"},"geometry":{"type":"Polygon","coordinates":[[[-119.18253,34.46801],[-119.18251,34.46794],[-119.18254,34.46787],[-119.18261,34.46784],[-119.18269,34.46785],[-119.18283,34.46795],[-119.18282,34.46805],[-119.18275,34.4681],[-119.18268,34.4681],[-119.18253,34.46801]]]}},{"type":"Feature","properties":{"name":"","c":"recreation"},"geometry":{"type":"Polygon","coordinates":[[[-119.18056,34.46797],[-119.18064,34.46802],[-119.18067,34.4681],[-119.18063,34.46818],[-119.18053,34.46823],[-119.18038,34.46818],[-119.18035,34.46806],[-119.18045,34.46796],[-119.18056,34.46797]]]}},{"type":"Feature","properties":{"name":"","c":"recreation"},"geometry":{"type":"Polygon","coordinates":[[[-119.19913,34.47082],[-119.19919,34.47082],[-119.19919,34.47095],[-119.19912,34.47095],[-119.19913,34.47082]]]}},{"type":"Feature","properties":{"name":"","c":"recreation"},"geometry":{"type":"Polygon","coordinates":[[[-119.25384,34.46175],[-119.25374,34.46183],[-119.25364,34.46174],[-119.25374,34.46166],[-119.25384,34.46175]]]}},{"type":"Feature","properties":{"name":"","c":"recreation"},"geometry":{"type":"Polygon","coordinates":[[[-119.25536,34.45741],[-119.25538,34.45763],[-119.25525,34.45763],[-119.25524,34.45742],[-119.25536,34.45741]]]}},{"type":"Feature","properties":{"name":"","c":"recreation"},"geometry":{"type":"Polygon","coordinates":[[[-119.24855,34.45659],[-119.24888,34.45669],[-119.24873,34.45722],[-119.24865,34.45724],[-119.24834,34.45716],[-119.24847,34.45663],[-119.24855,34.45659]]]}},{"type":"Feature","properties":{"name":"","c":"recreation"},"geometry":{"type":"Polygon","coordinates":[[[-119.25171,34.45449],[-119.25171,34.45471],[-119.25159,34.45471],[-119.25159,34.45449],[-119.25171,34.45449]]]}},{"type":"Feature","properties":{"name":"","c":"recreation"},"geometry":{"type":"Polygon","coordinates":[[[-119.25427,34.45193],[-119.25426,34.45214],[-119.25415,34.45214],[-119.25415,34.45193],[-119.25427,34.45193]]]}},{"type":"Feature","properties":{"name":"","c":"recreation"},"geometry":{"type":"Polygon","coordinates":[[[-119.25534,34.45078],[-119.25541,34.45086],[-119.25519,34.45098],[-119.25513,34.4509],[-119.25534,34.45078]]]}},{"type":"Feature","properties":{"name":"","c":"recreation"},"geometry":{"type":"Polygon","coordinates":[[[-119.2554,34.45086],[-119.25518,34.45098],[-119.25512,34.4509],[-119.25533,34.45078],[-119.2554,34.45086]]]}},{"type":"Feature","properties":{"name":"","c":"recreation"},"geometry":{"type":"Polygon","coordinates":[[[-119.25652,34.4508],[-119.25642,34.45074],[-119.25641,34.4507],[-119.25662,34.45049],[-119.25667,34.45049],[-119.25677,34.45056],[-119.25678,34.4506],[-119.25657,34.4508],[-119.25652,34.4508]]]}},{"type":"Feature","properties":{"name":"","c":"recreation"},"geometry":{"type":"Polygon","coordinates":[[[-119.25515,34.45523],[-119.25521,34.45544],[-119.25509,34.45546],[-119.25504,34.45525],[-119.25515,34.45523]]]}},{"type":"Feature","properties":{"name":"","c":"recreation"},"geometry":{"type":"Polygon","coordinates":[[[-119.26101,34.45561],[-119.26109,34.45552],[-119.2611,34.45542],[-119.26133,34.45538],[-119.26145,34.45561],[-119.26147,34.45574],[-119.26142,34.45576],[-119.26143,34.45579],[-119.26125,34.45584],[-119.26123,34.4558],[-119.26114,34.45583],[-119.26101,34.45561]]]}},{"type":"Feature","properties":{"name":"","c":"recreation"},"geometry":{"type":"Polygon","coordinates":[[[-119.25975,34.45386],[-119.2598,34.45407],[-119.25968,34.45409],[-119.25963,34.45388],[-119.25975,34.45386]]]}},{"type":"Feature","properties":{"name":"","c":"recreation"},"geometry":{"type":"Polygon","coordinates":[[[-119.26636,34.45305],[-119.26637,34.45315],[-119.26612,34.45317],[-119.2661,34.45308],[-119.26636,34.45305]]]}},{"type":"Feature","properties":{"name":"","c":"recreation"},"geometry":{"type":"Polygon","coordinates":[[[-119.26213,34.45642],[-119.26225,34.45643],[-119.26222,34.45665],[-119.2621,34.45664],[-119.26213,34.45642]]]}},{"type":"Feature","properties":{"name":"","c":"recreation"},"geometry":{"type":"Polygon","coordinates":[[[-119.26683,34.46338],[-119.26687,34.463],[-119.26746,34.46304],[-119.26742,34.46341],[-119.26683,34.46338]]]}},{"type":"Feature","properties":{"name":"","c":"recreation"},"geometry":{"type":"Polygon","coordinates":[[[-119.26731,34.46269],[-119.26743,34.4627],[-119.26741,34.46291],[-119.26729,34.4629],[-119.26731,34.46269]]]}},{"type":"Feature","properties":{"name":"","c":"recreation"},"geometry":{"type":"Polygon","coordinates":[[[-119.26707,34.46263],[-119.26748,34.46265],[-119.26745,34.46297],[-119.26704,34.46295],[-119.26707,34.46263]]]}},{"type":"Feature","properties":{"name":"","c":"recreation"},"geometry":{"type":"Polygon","coordinates":[[[-119.26711,34.46268],[-119.26723,34.46269],[-119.26721,34.4629],[-119.26709,34.46289],[-119.26711,34.46268]]]}},{"type":"Feature","properties":{"name":"","c":"recreation"},"geometry":{"type":"Polygon","coordinates":[[[-119.26711,34.46223],[-119.26751,34.46225],[-119.26748,34.46259],[-119.26708,34.46256],[-119.26711,34.46223]]]}},{"type":"Feature","properties":{"name":"","c":"recreation"},"geometry":{"type":"Polygon","coordinates":[[[-119.26714,34.46229],[-119.26726,34.4623],[-119.26725,34.46251],[-119.26713,34.46251],[-119.26714,34.46229]]]}},{"type":"Feature","properties":{"name":"","c":"recreation"},"geometry":{"type":"Polygon","coordinates":[[[-119.26731,34.46169],[-119.26756,34.46172],[-119.26754,34.46182],[-119.2673,34.4618],[-119.26731,34.46169]]]}},{"type":"Feature","properties":{"name":"","c":"recreation"},"geometry":{"type":"Polygon","coordinates":[[[-119.26726,34.46187],[-119.26755,34.46189],[-119.26752,34.46211],[-119.26723,34.46208],[-119.26726,34.46187]]]}},{"type":"Feature","properties":{"name":"","c":"recreation"},"geometry":{"type":"Polygon","coordinates":[[[-119.26734,34.4623],[-119.26746,34.46231],[-119.26744,34.46252],[-119.26732,34.46252],[-119.26734,34.4623]]]}},{"type":"Feature","properties":{"name":"","c":"recreation"},"geometry":{"type":"Polygon","coordinates":[[[-119.26716,34.4611],[-119.26711,34.46103],[-119.26709,34.46094],[-119.26713,34.46085],[-119.26729,34.46075],[-119.2674,34.46075],[-119.26753,34.46079],[-119.26753,34.46105],[-119.26749,34.4611],[-119.26716,34.4611]]]}},{"type":"Feature","properties":{"name":"","c":"recreation"},"geometry":{"type":"Polygon","coordinates":[[[-119.27161,34.44934],[-119.27177,34.44981],[-119.2716,34.45001],[-119.27147,34.45005],[-119.27144,34.45005],[-119.27146,34.44999],[-119.27135,34.44996],[-119.27128,34.45004],[-119.27116,34.45002],[-119.27116,34.44997],[-119.27084,34.44988],[-119.27079,34.44982],[-119.2707,34.44979],[-119.27057,34.4498],[-119.27022,34.44971],[-119.27044,34.44908],[-119.27047,34.44907],[-119.27161,34.44934]]]}},{"type":"Feature","properties":{"name":"","c":"recreation"},"geometry":{"type":"Polygon","coordinates":[[[-119.271,34.45114],[-119.27104,34.45136],[-119.27092,34.45137],[-119.27088,34.45116],[-119.271,34.45114]]]}},{"type":"Feature","properties":{"name":"","c":"recreation"},"geometry":{"type":"Polygon","coordinates":[[[-119.26978,34.45188],[-119.26981,34.45199],[-119.26973,34.452],[-119.2697,34.45189],[-119.26978,34.45188]]]}},{"type":"Feature","properties":{"name":"","c":"recreation"},"geometry":{"type":"Polygon","coordinates":[[[-119.27552,34.45055],[-119.27562,34.45058],[-119.27559,34.45065],[-119.27549,34.45063],[-119.27552,34.45055]]]}},{"type":"Feature","properties":{"name":"","c":"recreation"},"geometry":{"type":"Polygon","coordinates":[[[-119.28511,34.45779],[-119.28512,34.45839],[-119.28482,34.45844],[-119.2848,34.45785],[-119.28511,34.45779]]]}},{"type":"Feature","properties":{"name":"","c":"recreation"},"geometry":{"type":"Polygon","coordinates":[[[-119.2842,34.45893],[-119.28435,34.45925],[-119.28416,34.45932],[-119.284,34.459],[-119.2842,34.45893]]]}},{"type":"Feature","properties":{"name":"","c":"recreation"},"geometry":{"type":"Polygon","coordinates":[[[-119.28408,34.45904],[-119.28419,34.459],[-119.28429,34.4592],[-119.28418,34.45924],[-119.28408,34.45904]]]}},{"type":"Feature","properties":{"name":"","c":"recreation"},"geometry":{"type":"Polygon","coordinates":[[[-119.28432,34.46175],[-119.28444,34.46175],[-119.28442,34.46197],[-119.2843,34.46196],[-119.28432,34.46175]]]}},{"type":"Feature","properties":{"name":"","c":"recreation"},"geometry":{"type":"Polygon","coordinates":[[[-119.28237,34.47185],[-119.28249,34.47184],[-119.28249,34.47206],[-119.28237,34.47206],[-119.28237,34.47185]]]}},{"type":"Feature","properties":{"name":"","c":"recreation"},"geometry":{"type":"Polygon","coordinates":[[[-119.28727,34.46168],[-119.28759,34.46168],[-119.28761,34.4622],[-119.28728,34.46222],[-119.28727,34.46168]]]}},{"type":"Feature","properties":{"name":"","c":"recreation"},"geometry":{"type":"Polygon","coordinates":[[[-119.28772,34.46184],[-119.28776,34.46174],[-119.2878,34.46172],[-119.28787,34.46173],[-119.28791,34.46178],[-119.28791,34.46186],[-119.28782,34.4619],[-119.28772,34.46184]]]}},{"type":"Feature","properties":{"name":"","c":"recreation"},"geometry":{"type":"Polygon","coordinates":[[[-119.28915,34.45825],[-119.28922,34.45819],[-119.28931,34.45821],[-119.28934,34.45826],[-119.28931,34.45833],[-119.28924,34.45835],[-119.28916,34.4583],[-119.28915,34.45825]]]}},{"type":"Feature","properties":{"name":"","c":"recreation"},"geometry":{"type":"Polygon","coordinates":[[[-119.2891,34.4574],[-119.28913,34.45743],[-119.28912,34.45806],[-119.28908,34.45808],[-119.28867,34.45805],[-119.2887,34.4574],[-119.2891,34.4574]]]}},{"type":"Feature","properties":{"name":"","c":"recreation"},"geometry":{"type":"Polygon","coordinates":[[[-119.28908,34.45814],[-119.28911,34.45874],[-119.28875,34.45874],[-119.28872,34.45813],[-119.28908,34.45814]]]}},{"type":"Feature","properties":{"name":"","c":"recreation"},"geometry":{"type":"Polygon","coordinates":[[[-119.28649,34.45769],[-119.28652,34.4574],[-119.28657,34.45737],[-119.2872,34.45741],[-119.28723,34.45744],[-119.28721,34.45774],[-119.28718,34.45776],[-119.28652,34.45773],[-119.28649,34.45769]]]}},{"type":"Feature","properties":{"name":"","c":"recreation"},"geometry":{"type":"Polygon","coordinates":[[[-119.28532,34.45793],[-119.28528,34.45795],[-119.28522,34.45796],[-119.28516,34.4579],[-119.28519,34.45782],[-119.28525,34.45781],[-119.28531,34.45786],[-119.28532,34.45793]]]}},{"type":"Feature","properties":{"name":"","c":"recreation"},"geometry":{"type":"Polygon","coordinates":[[[-119.2857,34.45702],[-119.28572,34.45691],[-119.2858,34.45685],[-119.28594,34.45688],[-119.28598,34.45694],[-119.28595,34.45701],[-119.28583,34.45707],[-119.28575,34.45707],[-119.2857,34.45702]]]}},{"type":"Feature","properties":{"name":"","c":"recreation"},"geometry":{"type":"Polygon","coordinates":[[[-119.28861,34.45711],[-119.28864,34.45707],[-119.28874,34.45707],[-119.28877,34.45712],[-119.28875,34.45717],[-119.28865,34.45719],[-119.28861,34.45711]]]}},{"type":"Feature","properties":{"name":"","c":"recreation"},"geometry":{"type":"Polygon","coordinates":[[[-119.2865,34.45126],[-119.28689,34.45134],[-119.28683,34.45154],[-119.28644,34.45146],[-119.2865,34.45126]]]}},{"type":"Feature","properties":{"name":"","c":"recreation"},"geometry":{"type":"Polygon","coordinates":[[[-119.28658,34.4515],[-119.28671,34.45158],[-119.28672,34.45165],[-119.28667,34.45171],[-119.2866,34.45173],[-119.28648,34.45171],[-119.28645,34.45165],[-119.2865,34.45152],[-119.28658,34.4515]]]}},{"type":"Feature","properties":{"name":"","c":"recreation"},"geometry":{"type":"Polygon","coordinates":[[[-119.28594,34.45159],[-119.286,34.45141],[-119.28648,34.45149],[-119.28641,34.45168],[-119.28594,34.45159]]]}},{"type":"Feature","properties":{"name":"","c":"recreation"},"geometry":{"type":"Polygon","coordinates":[[[-119.28601,34.4518],[-119.28604,34.4517],[-119.28633,34.45173],[-119.28634,34.45181],[-119.28628,34.45197],[-119.28609,34.45191],[-119.28601,34.4518]]]}},{"type":"Feature","properties":{"name":"","c":"recreation"},"geometry":{"type":"Polygon","coordinates":[[[-119.28697,34.45011],[-119.28668,34.45007],[-119.28666,34.45004],[-119.28678,34.44958],[-119.28682,34.44957],[-119.2871,34.44964],[-119.28705,34.4498],[-119.28714,34.44982],[-119.2871,34.45011],[-119.28697,34.45009],[-119.28697,34.45011]]]}},{"type":"Feature","properties":{"name":"","c":"recreation"},"geometry":{"type":"Polygon","coordinates":[[[-119.287,34.44922],[-119.28697,34.44919],[-119.287,34.44908],[-119.28711,34.44911],[-119.28713,34.44914],[-119.28709,34.44922],[-119.287,34.44922]]]}},{"type":"Feature","properties":{"name":"","c":"recreation"},"geometry":{"type":"Polygon","coordinates":[[[-119.28674,34.45028],[-119.28669,34.45034],[-119.28664,34.45035],[-119.28656,34.45031],[-119.28657,34.45024],[-119.28661,34.4502],[-119.28672,34.45023],[-119.28674,34.45028]]]}},{"type":"Feature","properties":{"name":"","c":"recreation"},"geometry":{"type":"Polygon","coordinates":[[[-119.17407,34.45955],[-119.17389,34.45937],[-119.17385,34.45927],[-119.17392,34.45916],[-119.17398,34.45912],[-119.17404,34.45912],[-119.17485,34.45945],[-119.17467,34.45974],[-119.17454,34.45974],[-119.17407,34.45955]]]}},{"type":"Feature","properties":{"name":"","c":"recreation"},"geometry":{"type":"Polygon","coordinates":[[[-119.16108,34.45203],[-119.16097,34.45188],[-119.16115,34.45114],[-119.16119,34.4511],[-119.16222,34.45131],[-119.16222,34.45138],[-119.16185,34.45223],[-119.16108,34.45203]]]}},{"type":"Feature","properties":{"name":"","c":"recreation"},"geometry":{"type":"Polygon","coordinates":[[[-119.16015,34.45177],[-119.16,34.45176],[-119.16,34.45156],[-119.16018,34.45158],[-119.16015,34.45177]]]}},{"type":"Feature","properties":{"name":"Ojai Valley School Upper Campus","c":"education"},"geometry":{"type":"Polygon","coordinates":[[[-119.16149,34.44885],[-119.1624,34.4487],[-119.1625,34.44963],[-119.16267,34.4504],[-119.16251,34.45152],[-119.16211,34.45241],[-119.16,34.45227],[-119.16,34.44924],[-119.16024,34.44935],[-119.16149,34.44885]]]}}]}