{"type":"FeatureCollection","features":[{"type":"Feature","properties":{"name":"Ojai"},"geometry":{"type":"Polygon","coordinates":[[[-119.25774,34.44927],[-119.258,34.44958],[-119.25805,34.44962],[-119.25818,34.44971],[-119.25829,34.44979],[-119.25834,34.44983],[-119.25829,34.44991],[-119.25822,34.44998],[-119.25818,34.45001],[-119.25813,34.45004],[-119.25798,34.45011],[-119.25796,34.45011],[-119.25828,34.45145],[-119.25893,34.45146],[-119.25893,34.4516],[-119.25893,34.45161],[-119.25896,34.45231],[-119.25895,34.4524],[-119.25893,34.45247],[-119.25891,34.4525],[-119.25887,34.45252],[-119.2588,34.45256],[-119.25876,34.45259],[-119.25868,34.45267],[-119.25862,34.45275],[-119.2586,34.45281],[-119.2586,34.4531],[-119.25863,34.45336],[-119.25875,34.45359],[-119.25883,34.45375],[-119.259,34.45403],[-119.25913,34.45425],[-119.25927,34.45445],[-119.2596,34.45516],[-119.25964,34.45525],[-119.25964,34.45533],[-119.25963,34.45535],[-119.25962,34.45538],[-119.25959,34.45542],[-119.25953,34.45547],[-119.25972,34.45603],[-119.26035,34.45755],[-119.2605,34.45802],[-119.25893,34.45844],[-119.25784,34.45875],[-119.25629,34.4592],[-119.25615,34.45922],[-119.25615,34.45911],[-119.25094,34.46049],[-119.25085,34.46084],[-119.24953,34.46127],[-119.24656,34.46211],[-119.24666,34.46242],[-119.24646,34.46251],[-119.24646,34.46291],[-119.24686,34.46346],[-119.25029,34.46348],[-119.25025,34.47057],[-119.24396,34.47065],[-119.23679,34.47041],[-119.23686,34.46486],[-119.23502,34.46526],[-119.23363,34.46578],[-119.23375,34.46002],[-119.2337,34.46002],[-119.23345,34.46001],[-119.23276,34.46004],[-119.23311,34.45742],[-119.23298,34.45437],[-119.22981,34.45432],[-119.22958,34.45432],[-119.22933,34.45432],[-119.2287,34.45432],[-119.22824,34.45432],[-119.22761,34.45431],[-119.22755,34.45431],[-119.22606,34.45429],[-119.22516,34.45429],[-119.22397,34.45427],[-119.22245,34.45426],[-119.22232,34.45426],[-119.22217,34.45426],[-119.22202,34.45427],[-119.22158,34.45431],[-119.2215,34.45432],[-119.22136,34.45433],[-119.22116,34.45436],[-119.22099,34.45439],[-119.22078,34.45443],[-119.22073,34.45444],[-119.22304,34.45055],[-119.22353,34.44927],[-119.22352,34.44917],[-119.22318,34.44911],[-119.22247,34.44896],[-119.22079,34.44861],[-119.22062,34.44652],[-119.22527,34.44598],[-119.22491,34.44389],[-119.22447,34.44411],[-119.22424,34.44419],[-119.22368,34.44428],[-119.22328,34.44454],[-119.22284,34.44472],[-119.22253,34.44282],[-119.228,34.44216],[-119.22746,34.43964],[-119.22937,34.43922],[-119.23278,34.43884],[-119.23394,34.43804],[-119.2351,34.43864],[-119.23723,34.43776],[-119.23828,34.43731],[-119.24005,34.43677],[-119.24063,34.43644],[-119.24118,34.43627],[-119.24179,34.43622],[-119.24186,34.43639],[-119.24255,34.43635],[-119.24295,34.43613],[-119.24365,34.43597],[-119.24452,34.43602],[-119.24558,34.43531],[-119.24717,34.43485],[-119.24763,34.43522],[-119.24782,34.43502],[-119.24787,34.43531],[-119.24846,34.43608],[-119.24852,34.43626],[-119.24865,34.43656],[-119.24827,34.43697],[-119.24786,34.43759],[-119.24821,34.43784],[-119.25339,34.43784],[-119.25433,34.43691],[-119.25428,34.43599],[-119.25423,34.43573],[-119.25418,34.43555],[-119.25412,34.43542],[-119.25355,34.43555],[-119.25285,34.43497],[-119.2535,34.43438],[-119.25376,34.43451],[-119.25392,34.43466],[-119.25475,34.43464],[-119.25476,34.43492],[-119.25552,34.43489],[-119.25558,34.43097],[-119.25728,34.43024],[-119.25824,34.42924],[-119.25893,34.42939],[-119.26057,34.43117],[-119.26218,34.4332],[-119.26262,34.43352],[-119.26273,34.4336],[-119.2628,34.43368],[-119.2631,34.43394],[-119.26387,34.43469],[-119.26409,34.43401],[-119.26418,34.43373],[-119.26427,34.43353],[-119.26443,34.4333],[-119.26457,34.43311],[-119.26468,34.43298],[-119.26479,34.43288],[-119.26491,34.43278],[-119.2651,34.43264],[-119.2653,34.43251],[-119.26556,34.43236],[-119.26605,34.43212],[-119.26622,34.43209],[-119.26642,34.4321],[-119.26711,34.43206],[-119.26856,34.43187],[-119.26917,34.4318],[-119.26953,34.43177],[-119.26995,34.43178],[-119.27134,34.43191],[-119.27144,34.43211],[-119.27234,34.43392],[-119.27305,34.4353],[-119.27409,34.43539],[-119.27457,34.43613],[-119.27359,34.43915],[-119.27297,34.44108],[-119.27294,34.44116],[-119.27136,34.44591],[-119.27106,34.44726],[-119.26318,34.44529],[-119.26248,34.44707],[-119.26133,34.44699],[-119.26137,34.4466],[-119.26117,34.44659],[-119.26107,34.44657],[-119.26025,34.44643],[-119.26024,34.44617],[-119.26022,34.44594],[-119.2602,34.44587],[-119.26016,34.44571],[-119.26014,34.4456],[-119.26013,34.44532],[-119.26014,34.44521],[-119.26019,34.44495],[-119.25979,34.44523],[-119.2596,34.44531],[-119.25891,34.4456],[-119.25856,34.44575],[-119.25852,34.44578],[-119.2585,34.44581],[-119.25848,34.44587],[-119.25848,34.446],[-119.25849,34.44615],[-119.25848,34.44627],[-119.25845,34.44633],[-119.25842,34.44637],[-119.25831,34.44645],[-119.25821,34.44652],[-119.25793,34.44668],[-119.25765,34.44682],[-119.25736,34.44693],[-119.25725,34.44696],[-119.25707,34.44711],[-119.25755,34.44909],[-119.25758,34.44911],[-119.2576,34.44912],[-119.25763,34.44915],[-119.25773,34.44925],[-119.25774,34.44927]],[[-119.22561,34.44895],[-119.22534,34.4473],[-119.22333,34.44757],[-119.22356,34.44902],[-119.22359,34.44905],[-119.22363,34.44907],[-119.22467,34.449],[-119.22561,34.44895]]]}}]}